[
  {
    "Location": "Ada Estate",
    "Ward": "Kinondoni",
    "District": "Kinondoni",
    "Region": "Dar Es Salaam",
    "Postcode": "14110"
  },
  {
    "Location": "Alimaua \"A\"",
    "Ward": "Kijitonyama",
    "District": "Kinondoni",
    "Region": "Dar Es Salaam",
    "Postcode": "14113"
  },
  {
    "Location": "Alimaua \"B\"",
    "Ward": "Kijitonyama",
    "District": "Kinondoni",
    "Region": "Dar Es Salaam",
    "Postcode": "14113"
  },
  {
    "Location": "Ally H. Mwinyi",
    "Ward": "Mikocheni",
    "District": "Kinondoni",
    "Region": "Dar Es Salaam",
    "Postcode": "14112"
  },
  {
    "Location": "Amana",
    "Ward": "Ilala",
    "District": "Ilala",
    "Region": "Dar Es Salaam",
    "Postcode": "12101"
  },
  {
    "Location": "Amani",
    "Ward": "Liwiti",
    "District": "Ilala",
    "Region": "Dar Es Salaam",
    "Postcode": "12119"
  },
  {
    "Location": "Amani",
    "Ward": "Kipunguni",
    "District": "Ilala",
    "Region": "Dar Es Salaam",
    "Postcode": "12121"
  },
  {
    "Location": "Amani",
    "Ward": "Buza",
    "District": "Temeke",
    "Region": "Dar Es Salaam",
    "Postcode": "15125"
  },
  {
    "Location": "Azimio",
    "Ward": "Mabibo",
    "District": "Ubungo",
    "Region": "Dar Es Salaam",
    "Postcode": "16109"
  },
  {
    "Location": "Azimio Kaskazini",
    "Ward": "Azimio",
    "District": "Temeke",
    "Region": "Dar Es Salaam",
    "Postcode": "15106"
  },
  {
    "Location": "Azimio Kusini",
    "Ward": "Azimio",
    "District": "Temeke",
    "Region": "Dar Es Salaam",
    "Postcode": "15106"
  },
  {
    "Location": "Bamba",
    "Ward": "Somangila",
    "District": "Kigamboni",
    "Region": "Dar Es Salaam",
    "Postcode": "17102"
  },
  {
    "Location": "Banebane",
    "Ward": "Kimanga",
    "District": "Ilala",
    "Region": "Dar Es Salaam",
    "Postcode": "12104"
  },
  {
    "Location": "Bangulo",
    "Ward": "Pugu Station",
    "District": "Ilala",
    "Region": "Dar Es Salaam",
    "Postcode": "12127"
  },
  {
    "Location": "Barabara ya Mwinyi",
    "Ward": "Kilakala",
    "District": "Temeke",
    "Region": "Dar Es Salaam",
    "Postcode": "15127"
  },
  {
    "Location": "Barabara ya Mwinyi",
    "Ward": "Kiburugwa",
    "District": "Temeke",
    "Region": "Dar Es Salaam",
    "Postcode": "15128"
  },
  {
    "Location": "Barafu",
    "Ward": "Mburahati",
    "District": "Ubungo",
    "Region": "Dar Es Salaam",
    "Postcode": "16101"
  },
  {
    "Location": "Baruti",
    "Ward": "Kimara",
    "District": "Ubungo",
    "Region": "Dar Es Salaam",
    "Postcode": "16104"
  },
  {
    "Location": "Boko",
    "Ward": "Bunju",
    "District": "Kinondoni",
    "Region": "Dar Es Salaam",
    "Postcode": "14125"
  },
  {
    "Location": "Bokorani",
    "Ward": "Mtoni",
    "District": "Temeke",
    "Region": "Dar Es Salaam",
    "Postcode": "15108"
  },
  {
    "Location": "Bombambili",
    "Ward": "Kivule",
    "District": "Ilala",
    "Region": "Dar Es Salaam",
    "Postcode": "12117"
  },
  {
    "Location": "Bombani",
    "Ward": "Pugu",
    "District": "Ilala",
    "Region": "Dar Es Salaam",
    "Postcode": "12112"
  },
  {
    "Location": "Bonde la Mpunga",
    "Ward": "Msasani",
    "District": "Kinondoni",
    "Region": "Dar Es Salaam",
    "Postcode": "14111"
  },
  {
    "Location": "Bonyokwa",
    "Ward": "Bonyokwa",
    "District": "Ilala",
    "Region": "Dar Es Salaam",
    "Postcode": "12120"
  },
  {
    "Location": "Bora",
    "Ward": "Chang’Ombe",
    "District": "Temeke",
    "Region": "Dar Es Salaam",
    "Postcode": "15103"
  },
  {
    "Location": "Bughudadi",
    "Ward": "Mbagala",
    "District": "Temeke",
    "Region": "Dar Es Salaam",
    "Postcode": "15113"
  },
  {
    "Location": "Bunju \"A\"",
    "Ward": "Bunju",
    "District": "Kinondoni",
    "Region": "Dar Es Salaam",
    "Postcode": "14125"
  },
  {
    "Location": "Bunju \"B'",
    "Ward": "Mabwepande",
    "District": "Kinondoni",
    "Region": "Dar Es Salaam",
    "Postcode": "14134"
  },
  {
    "Location": "Busihaya",
    "Ward": "Bunju",
    "District": "Kinondoni",
    "Region": "Dar Es Salaam",
    "Postcode": "14125"
  },
  {
    "Location": "Bustani",
    "Ward": "Mtoni",
    "District": "Temeke",
    "Region": "Dar Es Salaam",
    "Postcode": "15108"
  },
  {
    "Location": "Butiama",
    "Ward": "Kijichi",
    "District": "Temeke",
    "Region": "Dar Es Salaam",
    "Postcode": "15129"
  },
  {
    "Location": "Butiama",
    "Ward": "Vingunguti",
    "District": "Ilala",
    "Region": "Dar Es Salaam",
    "Postcode": "12109"
  },
  {
    "Location": "Buyuni Centre",
    "Ward": "Pembamnazi",
    "District": "Kigamboni",
    "Region": "Dar Es Salaam",
    "Postcode": "17105"
  },
  {
    "Location": "Buza",
    "Ward": "Buza",
    "District": "Temeke",
    "Region": "Dar Es Salaam",
    "Postcode": "15125"
  },
  {
    "Location": "Bwawani",
    "Ward": "Kijitonyama",
    "District": "Kinondoni",
    "Region": "Dar Es Salaam",
    "Postcode": "14113"
  },
  {
    "Location": "Bwawani",
    "Ward": "Mwananyamala",
    "District": "Kinondoni",
    "Region": "Dar Es Salaam",
    "Postcode": "14108"
  },
  {
    "Location": "Chakula Bora",
    "Ward": "Manzese",
    "District": "Ubungo",
    "Region": "Dar Es Salaam",
    "Postcode": "16108"
  },
  {
    "Location": "Chambewa",
    "Ward": "Pembamnazi",
    "District": "Kigamboni",
    "Region": "Dar Es Salaam",
    "Postcode": "17105"
  },
  {
    "Location": "Chang'ombe \"A\"",
    "Ward": "Chang’Ombe",
    "District": "Temeke",
    "Region": "Dar Es Salaam",
    "Postcode": "15103"
  },
  {
    "Location": "Chang'ombe \"B\"",
    "Ward": "Chang’Ombe",
    "District": "Temeke",
    "Region": "Dar Es Salaam",
    "Postcode": "15103"
  },
  {
    "Location": "Changanyikeni",
    "Ward": "Makongo",
    "District": "Kinondoni",
    "Region": "Dar Es Salaam",
    "Postcode": "14129"
  },
  {
    "Location": "Changanyikeni",
    "Ward": "Toangoma",
    "District": "Temeke",
    "Region": "Dar Es Salaam",
    "Postcode": "15118"
  },
  {
    "Location": "Charambe",
    "Ward": "Upanga Magharibi",
    "District": "Ilala CBD",
    "Region": "Dar Es Salaam",
    "Postcode": "11103"
  },
  {
    "Location": "Chaurembo",
    "Ward": "Mtoni",
    "District": "Temeke",
    "Region": "Dar Es Salaam",
    "Postcode": "15108"
  },
  {
    "Location": "Chuo Kikuu",
    "Ward": "Ubungo",
    "District": "Ubungo",
    "Region": "Dar Es Salaam",
    "Postcode": "16103"
  },
  {
    "Location": "Darajani",
    "Ward": "Mikocheni",
    "District": "Kinondoni",
    "Region": "Dar Es Salaam",
    "Postcode": "14112"
  },
  {
    "Location": "Dege",
    "Ward": "Somangila",
    "District": "Kigamboni",
    "Region": "Dar Es Salaam",
    "Postcode": "17102"
  },
  {
    "Location": "Dossi",
    "Ward": "Magomeni",
    "District": "Kinondoni",
    "Region": "Dar Es Salaam",
    "Postcode": "14101"
  },
  {
    "Location": "Dovya",
    "Ward": "Bunju",
    "District": "Kinondoni",
    "Region": "Dar Es Salaam",
    "Postcode": "14125"
  },
  {
    "Location": "Dovya",
    "Ward": "Chamazi",
    "District": "Temeke",
    "Region": "Dar Es Salaam",
    "Postcode": "15116"
  },
  {
    "Location": "Faru",
    "Ward": "Mnyamani",
    "District": "Ilala",
    "Region": "Dar Es Salaam",
    "Postcode": "12118"
  },
  {
    "Location": "Ferry",
    "Ward": "Kigamboni",
    "District": "Kigamboni",
    "Region": "Dar Es Salaam",
    "Postcode": "17107"
  },
  {
    "Location": "Fire",
    "Ward": "Upanga Magharibi",
    "District": "Ilala CBD",
    "Region": "Dar Es Salaam",
    "Postcode": "11103"
  },
  {
    "Location": "Gerezani Magharibi",
    "Ward": "Gerezani",
    "District": "Ilala CBD",
    "Region": "Dar Es Salaam",
    "Postcode": "11107"
  },
  {
    "Location": "Gerezani Mashariki",
    "Ward": "Gerezani",
    "District": "Ilala CBD",
    "Region": "Dar Es Salaam",
    "Postcode": "11107"
  },
  {
    "Location": "Goba",
    "Ward": "Goba",
    "District": "Ubungo",
    "Region": "Dar Es Salaam",
    "Postcode": "16112"
  },
  {
    "Location": "Gogo",
    "Ward": "Zingiziwa",
    "District": "Ilala",
    "Region": "Dar Es Salaam",
    "Postcode": "12125"
  },
  {
    "Location": "Gogoni",
    "Ward": "Kibamba",
    "District": "Ubungo",
    "Region": "Dar Es Salaam",
    "Postcode": "16110"
  },
  {
    "Location": "Golani",
    "Ward": "Kimbiji",
    "District": "Kigamboni",
    "Region": "Dar Es Salaam",
    "Postcode": "17101"
  },
  {
    "Location": "Golani",
    "Ward": "Kimara",
    "District": "Ubungo",
    "Region": "Dar Es Salaam",
    "Postcode": "16104"
  },
  {
    "Location": "Gongo la Mboto",
    "Ward": "Gongo La Mboto",
    "District": "Ilala",
    "Region": "Dar Es Salaam",
    "Postcode": "12110"
  },
  {
    "Location": "Goroka 'A'",
    "Ward": "Toangoma",
    "District": "Temeke",
    "Region": "Dar Es Salaam",
    "Postcode": "15118"
  },
  {
    "Location": "Goroka 'B'",
    "Ward": "Toangoma",
    "District": "Temeke",
    "Region": "Dar Es Salaam",
    "Postcode": "15118"
  },
  {
    "Location": "Gulubwida",
    "Ward": "Pembamnazi",
    "District": "Kigamboni",
    "Region": "Dar Es Salaam",
    "Postcode": "17105"
  },
  {
    "Location": "Guluka Kwalala",
    "Ward": "Gongo La Mboto",
    "District": "Ilala",
    "Region": "Dar Es Salaam",
    "Postcode": "12110"
  },
  {
    "Location": "Hananasif",
    "Ward": "Hananasif",
    "District": "Kinondoni",
    "Region": "Dar Es Salaam",
    "Postcode": "14109"
  },
  {
    "Location": "Hondogo",
    "Ward": "Kibamba",
    "District": "Ubungo",
    "Region": "Dar Es Salaam",
    "Postcode": "16110"
  },
  {
    "Location": "Idrisa",
    "Ward": "Mzimuni",
    "District": "Kinondoni",
    "Region": "Dar Es Salaam",
    "Postcode": "14102"
  },
  {
    "Location": "Idrisa",
    "Ward": "Magomeni",
    "District": "Kinondoni",
    "Region": "Dar Es Salaam",
    "Postcode": "14101"
  },
  {
    "Location": "Ilala Kota",
    "Ward": "Mchikichini",
    "District": "Ilala CBD",
    "Region": "Dar Es Salaam",
    "Postcode": "11109"
  },
  {
    "Location": "Jeshi la Wokovu",
    "Ward": "Mbagala Kuu",
    "District": "Temeke",
    "Region": "Dar Es Salaam",
    "Postcode": "15112"
  },
  {
    "Location": "Jitegemee",
    "Ward": "Mabibo",
    "District": "Ubungo",
    "Region": "Dar Es Salaam",
    "Postcode": "16109"
  },
  {
    "Location": "Jogoo",
    "Ward": "Mbezi Juu",
    "District": "Kinondoni",
    "Region": "Dar Es Salaam",
    "Postcode": "14128"
  },
  {
    "Location": "Juhudi",
    "Ward": "Kiburugwa",
    "District": "Temeke",
    "Region": "Dar Es Salaam",
    "Postcode": "15128"
  },
  {
    "Location": "Kagera",
    "Ward": "Makurumla",
    "District": "Ubungo",
    "Region": "Dar Es Salaam",
    "Postcode": "16107"
  },
  {
    "Location": "Kajima",
    "Ward": "Makuburi",
    "District": "Ubungo",
    "Region": "Dar Es Salaam",
    "Postcode": "16106"
  },
  {
    "Location": "Kambangwa",
    "Ward": "Mwananyamala",
    "District": "Kinondoni",
    "Region": "Dar Es Salaam",
    "Postcode": "14108"
  },
  {
    "Location": "Kanga",
    "Ward": "Kinyerezi",
    "District": "Ilala",
    "Region": "Dar Es Salaam",
    "Postcode": "12116"
  },
  {
    "Location": "Kanuni",
    "Ward": "Mabibo",
    "District": "Ubungo",
    "Region": "Dar Es Salaam",
    "Postcode": "16109"
  },
  {
    "Location": "Karakata",
    "Ward": "Kipawa",
    "District": "Ilala",
    "Region": "Dar Es Salaam",
    "Postcode": "12106"
  },
  {
    "Location": "Karezange",
    "Ward": "Kivule",
    "District": "Ilala",
    "Region": "Dar Es Salaam",
    "Postcode": "12117"
  },
  {
    "Location": "Kariakoo Kaskazini",
    "Ward": "Kariakoo",
    "District": "Ilala CBD",
    "Region": "Dar Es Salaam",
    "Postcode": "11106"
  },
  {
    "Location": "Kariakoo Magharibi",
    "Ward": "Kariakoo",
    "District": "Ilala CBD",
    "Region": "Dar Es Salaam",
    "Postcode": "11106"
  },
  {
    "Location": "Kariakoo Mashariki",
    "Ward": "Kariakoo",
    "District": "Ilala CBD",
    "Region": "Dar Es Salaam",
    "Postcode": "11106"
  },
  {
    "Location": "Karume",
    "Ward": "Ilala",
    "District": "Ilala",
    "Region": "Dar Es Salaam",
    "Postcode": "12101"
  },
  {
    "Location": "Kasulu",
    "Ward": "Ilala",
    "District": "Ilala",
    "Region": "Dar Es Salaam",
    "Postcode": "12101"
  },
  {
    "Location": "Kawawa",
    "Ward": "Hananasif",
    "District": "Kinondoni",
    "Region": "Dar Es Salaam",
    "Postcode": "14109"
  },
  {
    "Location": "Keko \"B\"",
    "Ward": "Keko",
    "District": "Temeke",
    "Region": "Dar Es Salaam",
    "Postcode": "15104"
  },
  {
    "Location": "Keko Machungwa",
    "Ward": "Miburani",
    "District": "Temeke",
    "Region": "Dar Es Salaam",
    "Postcode": "15105"
  },
  {
    "Location": "Keko Magurumbasi \"A\"",
    "Ward": "Keko",
    "District": "Temeke",
    "Region": "Dar Es Salaam",
    "Postcode": "15104"
  },
  {
    "Location": "Keko Magurumbasi \"B\"",
    "Ward": "Keko",
    "District": "Temeke",
    "Region": "Dar Es Salaam",
    "Postcode": "15104"
  },
  {
    "Location": "Keko Mwanga \"A\"",
    "Ward": "Keko",
    "District": "Temeke",
    "Region": "Dar Es Salaam",
    "Postcode": "15104"
  },
  {
    "Location": "Keko Mwanga \"B\"",
    "Ward": "Keko",
    "District": "Temeke",
    "Region": "Dar Es Salaam",
    "Postcode": "15104"
  },
  {
    "Location": "Kibaga",
    "Ward": "Kinyerezi",
    "District": "Ilala",
    "Region": "Dar Es Salaam",
    "Postcode": "12116"
  },
  {
    "Location": "Kibamba",
    "Ward": "Kibamba",
    "District": "Ubungo",
    "Region": "Dar Es Salaam",
    "Postcode": "16110"
  },
  {
    "Location": "Kibangu",
    "Ward": "Makuburi",
    "District": "Ubungo",
    "Region": "Dar Es Salaam",
    "Postcode": "16106"
  },
  {
    "Location": "Kibasila",
    "Ward": "Upanga Mashariki",
    "District": "Ilala CBD",
    "Region": "Dar Es Salaam",
    "Postcode": "11102"
  },
  {
    "Location": "Kibene",
    "Ward": "Vijibweni",
    "District": "Kigamboni",
    "Region": "Dar Es Salaam",
    "Postcode": "17108"
  },
  {
    "Location": "Kibo",
    "Ward": "Ubungo",
    "District": "Ubungo",
    "Region": "Dar Es Salaam",
    "Postcode": "16103"
  },
  {
    "Location": "Kiboga",
    "Ward": "Msongola",
    "District": "Ilala",
    "Region": "Dar Es Salaam",
    "Postcode": "12114"
  },
  {
    "Location": "Kibonde Maji \"B\"",
    "Ward": "Mbagala Kuu",
    "District": "Temeke",
    "Region": "Dar Es Salaam",
    "Postcode": "15112"
  },
  {
    "Location": "Kibondemaji A",
    "Ward": "Kibondemaji",
    "District": "Temeke",
    "Region": "Dar Es Salaam",
    "Postcode": "15131"
  },
  {
    "Location": "Kibugumo",
    "Ward": "Mjimwema",
    "District": "Kigamboni",
    "Region": "Dar Es Salaam",
    "Postcode": "17106"
  },
  {
    "Location": "Kibululu",
    "Ward": "Goba",
    "District": "Ubungo",
    "Region": "Dar Es Salaam",
    "Postcode": "16112"
  },
  {
    "Location": "Kibungo",
    "Ward": "Pembamnazi",
    "District": "Kigamboni",
    "Region": "Dar Es Salaam",
    "Postcode": "17105"
  },
  {
    "Location": "Kiburugwa",
    "Ward": "Kiburugwa",
    "District": "Temeke",
    "Region": "Dar Es Salaam",
    "Postcode": "15128"
  },
  {
    "Location": "Kiburugwa namba3",
    "Ward": "Kiburugwa",
    "District": "Temeke",
    "Region": "Dar Es Salaam",
    "Postcode": "15128"
  },
  {
    "Location": "Kibwegere",
    "Ward": "Kibamba",
    "District": "Ubungo",
    "Region": "Dar Es Salaam",
    "Postcode": "16110"
  },
  {
    "Location": "Kichangani",
    "Ward": "Pembamnazi",
    "District": "Kigamboni",
    "Region": "Dar Es Salaam",
    "Postcode": "17105"
  },
  {
    "Location": "Kichangani",
    "Ward": "Kisarawe Ii",
    "District": "Kigamboni",
    "Region": "Dar Es Salaam",
    "Postcode": "17104"
  },
  {
    "Location": "Kichangani",
    "Ward": "Pugu Station",
    "District": "Ilala",
    "Region": "Dar Es Salaam",
    "Postcode": "12127"
  },
  {
    "Location": "Kichangani",
    "Ward": "Kibada",
    "District": "Kigamboni",
    "Region": "Dar Es Salaam",
    "Postcode": "17109"
  },
  {
    "Location": "Kichangani",
    "Ward": "Kinyerezi",
    "District": "Ilala",
    "Region": "Dar Es Salaam",
    "Postcode": "12116"
  },
  {
    "Location": "Kichangani",
    "Ward": "Azimio",
    "District": "Temeke",
    "Region": "Dar Es Salaam",
    "Postcode": "15106"
  },
  {
    "Location": "Kichangani",
    "Ward": "Majohe",
    "District": "Ilala",
    "Region": "Dar Es Salaam",
    "Postcode": "12113"
  },
  {
    "Location": "Kichangani",
    "Ward": "Somangila",
    "District": "Kigamboni",
    "Region": "Dar Es Salaam",
    "Postcode": "17102"
  },
  {
    "Location": "Kichemchem",
    "Ward": "Mbagala Kuu",
    "District": "Temeke",
    "Region": "Dar Es Salaam",
    "Postcode": "15112"
  },
  {
    "Location": "Kidagaa",
    "Ward": "Buza",
    "District": "Temeke",
    "Region": "Dar Es Salaam",
    "Postcode": "15125"
  },
  {
    "Location": "Kidole",
    "Ward": "Msongola",
    "District": "Ilala",
    "Region": "Dar Es Salaam",
    "Postcode": "12114"
  },
  {
    "Location": "Kidugalo",
    "Ward": "Chanika",
    "District": "Ilala",
    "Region": "Dar Es Salaam",
    "Postcode": "12115"
  },
  {
    "Location": "Kiembesamaki",
    "Ward": "Kilakala",
    "District": "Temeke",
    "Region": "Dar Es Salaam",
    "Postcode": "15127"
  },
  {
    "Location": "Kifuru",
    "Ward": "Kinyerezi",
    "District": "Ilala",
    "Region": "Dar Es Salaam",
    "Postcode": "12116"
  },
  {
    "Location": "Kifurukwe",
    "Ward": "Kibada",
    "District": "Kigamboni",
    "Region": "Dar Es Salaam",
    "Postcode": "17109"
  },
  {
    "Location": "Kigamboni",
    "Ward": "Kigamboni",
    "District": "Kigamboni",
    "Region": "Dar Es Salaam",
    "Postcode": "17107"
  },
  {
    "Location": "Kigezi",
    "Ward": "Buyuni",
    "District": "Ilala",
    "Region": "Dar Es Salaam",
    "Postcode": "12124"
  },
  {
    "Location": "Kigezi Chini",
    "Ward": "Buyuni",
    "District": "Ilala",
    "Region": "Dar Es Salaam",
    "Postcode": "12124"
  },
  {
    "Location": "Kigilagila",
    "Ward": "Kiwalani",
    "District": "Ilala",
    "Region": "Dar Es Salaam",
    "Postcode": "12108"
  },
  {
    "Location": "Kigogo",
    "Ward": "Kisarawe Ii",
    "District": "Kigamboni",
    "Region": "Dar Es Salaam",
    "Postcode": "17104"
  },
  {
    "Location": "Kigogo Fresh 'A'",
    "Ward": "Pugu",
    "District": "Ilala",
    "Region": "Dar Es Salaam",
    "Postcode": "12112"
  },
  {
    "Location": "Kigogo Fresh 'B'",
    "Ward": "Pugu",
    "District": "Ilala",
    "Region": "Dar Es Salaam",
    "Postcode": "12112"
  },
  {
    "Location": "Kigogo Kati",
    "Ward": "Kigogo",
    "District": "Kinondoni",
    "Region": "Dar Es Salaam",
    "Postcode": "14118"
  },
  {
    "Location": "Kigogo Mbuyuni",
    "Ward": "Kigogo",
    "District": "Kinondoni",
    "Region": "Dar Es Salaam",
    "Postcode": "14118"
  },
  {
    "Location": "Kigogo Mkwajuni",
    "Ward": "Kigogo",
    "District": "Kinondoni",
    "Region": "Dar Es Salaam",
    "Postcode": "14118"
  },
  {
    "Location": "Kigunga",
    "Ward": "Kilakala",
    "District": "Temeke",
    "Region": "Dar Es Salaam",
    "Postcode": "15127"
  },
  {
    "Location": "Kihimbwa",
    "Ward": "Kimanga",
    "District": "Ilala",
    "Region": "Dar Es Salaam",
    "Postcode": "12104"
  },
  {
    "Location": "Kihonzile",
    "Ward": "Mabwepande",
    "District": "Kinondoni",
    "Region": "Dar Es Salaam",
    "Postcode": "14134"
  },
  {
    "Location": "Kijaka",
    "Ward": "Kimbiji",
    "District": "Kigamboni",
    "Region": "Dar Es Salaam",
    "Postcode": "17101"
  },
  {
    "Location": "Kijitonyama",
    "Ward": "Kijitonyama",
    "District": "Kinondoni",
    "Region": "Dar Es Salaam",
    "Postcode": "14113"
  },
  {
    "Location": "Kilakala",
    "Ward": "Kilakala",
    "District": "Temeke",
    "Region": "Dar Es Salaam",
    "Postcode": "15127"
  },
  {
    "Location": "Kilimahewa",
    "Ward": "Tandika",
    "District": "Temeke",
    "Region": "Dar Es Salaam",
    "Postcode": "15107"
  },
  {
    "Location": "Kilimahewa",
    "Ward": "Makurumla",
    "District": "Ubungo",
    "Region": "Dar Es Salaam",
    "Postcode": "16107"
  },
  {
    "Location": "Kilimahewa",
    "Ward": "Wazo",
    "District": "Kinondoni",
    "Region": "Dar Es Salaam",
    "Postcode": "14130"
  },
  {
    "Location": "Kilimahewa Juu",
    "Ward": "Wazo",
    "District": "Kinondoni",
    "Region": "Dar Es Salaam",
    "Postcode": "14130"
  },
  {
    "Location": "Kilimani",
    "Ward": "Manzese",
    "District": "Ubungo",
    "Region": "Dar Es Salaam",
    "Postcode": "16108"
  },
  {
    "Location": "Kilongawima",
    "Ward": "Kunduchi",
    "District": "Kinondoni",
    "Region": "Dar Es Salaam",
    "Postcode": "14122"
  },
  {
    "Location": "Kilungule",
    "Ward": "Bunju",
    "District": "Kinondoni",
    "Region": "Dar Es Salaam",
    "Postcode": "14125"
  },
  {
    "Location": "Kilungule",
    "Ward": "Kilungule",
    "District": "Temeke",
    "Region": "Dar Es Salaam",
    "Postcode": "15132"
  },
  {
    "Location": "Kilungule \"A\"",
    "Ward": "Kimara",
    "District": "Ubungo",
    "Region": "Dar Es Salaam",
    "Postcode": "16104"
  },
  {
    "Location": "Kilungule \"B\"",
    "Ward": "Kimara",
    "District": "Ubungo",
    "Region": "Dar Es Salaam",
    "Postcode": "16104"
  },
  {
    "Location": "Kiluvya",
    "Ward": "Kibamba",
    "District": "Ubungo",
    "Region": "Dar Es Salaam",
    "Postcode": "16110"
  },
  {
    "Location": "Kimamba",
    "Ward": "Makurumla",
    "District": "Ubungo",
    "Region": "Dar Es Salaam",
    "Postcode": "16107"
  },
  {
    "Location": "Kimanga",
    "Ward": "Kimanga",
    "District": "Ilala",
    "Region": "Dar Es Salaam",
    "Postcode": "12104"
  },
  {
    "Location": "Kimanga Darajani",
    "Ward": "Kimanga",
    "District": "Ilala",
    "Region": "Dar Es Salaam",
    "Postcode": "12104"
  },
  {
    "Location": "Kimara Baruti",
    "Ward": "Kimara",
    "District": "Ubungo",
    "Region": "Dar Es Salaam",
    "Postcode": "16104"
  },
  {
    "Location": "Kimara\"B\"",
    "Ward": "Saranga",
    "District": "Ubungo",
    "Region": "Dar Es Salaam",
    "Postcode": "16105"
  },
  {
    "Location": "Kimbangulile",
    "Ward": "Kibondemaji",
    "District": "Temeke",
    "Region": "Dar Es Salaam",
    "Postcode": "15131"
  },
  {
    "Location": "Kimbunga",
    "Ward": "Sandali",
    "District": "Temeke",
    "Region": "Dar Es Salaam",
    "Postcode": "15102"
  },
  {
    "Location": "Kimwani",
    "Ward": "Zingiziwa",
    "District": "Ilala",
    "Region": "Dar Es Salaam",
    "Postcode": "12125"
  },
  {
    "Location": "King'azi",
    "Ward": "Kwembe",
    "District": "Ubungo",
    "Region": "Dar Es Salaam",
    "Postcode": "16111"
  },
  {
    "Location": "king'azi B",
    "Ward": "Kwembe",
    "District": "Ubungo",
    "Region": "Dar Es Salaam",
    "Postcode": "16111"
  },
  {
    "Location": "King'ongo",
    "Ward": "Saranga",
    "District": "Ubungo",
    "Region": "Dar Es Salaam",
    "Postcode": "16105"
  },
  {
    "Location": "Kingugi",
    "Ward": "Kiburugwa",
    "District": "Temeke",
    "Region": "Dar Es Salaam",
    "Postcode": "15128"
  },
  {
    "Location": "Kinondoni Mjini",
    "Ward": "Kinondoni",
    "District": "Kinondoni",
    "Region": "Dar Es Salaam",
    "Postcode": "14110"
  },
  {
    "Location": "Kinondoni Shamba",
    "Ward": "Kinondoni",
    "District": "Kinondoni",
    "Region": "Dar Es Salaam",
    "Postcode": "14110"
  },
  {
    "Location": "Kinyamwezi",
    "Ward": "Pugu",
    "District": "Ilala",
    "Region": "Dar Es Salaam",
    "Postcode": "12112"
  },
  {
    "Location": "Kinyerezi",
    "Ward": "Kinyerezi",
    "District": "Ilala",
    "Region": "Dar Es Salaam",
    "Postcode": "12116"
  },
  {
    "Location": "Kinzudi",
    "Ward": "Goba",
    "District": "Ubungo",
    "Region": "Dar Es Salaam",
    "Postcode": "16112"
  },
  {
    "Location": "Kipera",
    "Ward": "Kitunda",
    "District": "Ilala",
    "Region": "Dar Es Salaam",
    "Postcode": "12111"
  },
  {
    "Location": "Kiponza",
    "Ward": "Chamazi",
    "District": "Temeke",
    "Region": "Dar Es Salaam",
    "Postcode": "15116"
  },
  {
    "Location": "Kipunguni",
    "Ward": "Kipawa",
    "District": "Ilala",
    "Region": "Dar Es Salaam",
    "Postcode": "12106"
  },
  {
    "Location": "Kipunguni B",
    "Ward": "Kipunguni",
    "District": "Ilala",
    "Region": "Dar Es Salaam",
    "Postcode": "12121"
  },
  {
    "Location": "Kisanga",
    "Ward": "Wazo",
    "District": "Kinondoni",
    "Region": "Dar Es Salaam",
    "Postcode": "14130"
  },
  {
    "Location": "Kisewe",
    "Ward": "Chamazi",
    "District": "Temeke",
    "Region": "Dar Es Salaam",
    "Postcode": "15116"
  },
  {
    "Location": "Kisiwani",
    "Ward": "Mburahati",
    "District": "Ubungo",
    "Region": "Dar Es Salaam",
    "Postcode": "16101"
  },
  {
    "Location": "Kisiwani",
    "Ward": "Makumbusho",
    "District": "Kinondoni",
    "Region": "Dar Es Salaam",
    "Postcode": "14107"
  },
  {
    "Location": "Kisiwani",
    "Ward": "Buguruni",
    "District": "Ilala",
    "Region": "Dar Es Salaam",
    "Postcode": "12102"
  },
  {
    "Location": "Kisiwani",
    "Ward": "Bonyokwa",
    "District": "Ilala",
    "Region": "Dar Es Salaam",
    "Postcode": "12120"
  },
  {
    "Location": "Kisiwani",
    "Ward": "Vijibweni",
    "District": "Kigamboni",
    "Region": "Dar Es Salaam",
    "Postcode": "17108"
  },
  {
    "Location": "Kisiwani",
    "Ward": "Tabata",
    "District": "Ilala",
    "Region": "Dar Es Salaam",
    "Postcode": "12103"
  },
  {
    "Location": "Kisiwani",
    "Ward": "Sandali",
    "District": "Temeke",
    "Region": "Dar Es Salaam",
    "Postcode": "15102"
  },
  {
    "Location": "Kisiwani",
    "Ward": "Buguruni",
    "District": "Ilala",
    "Region": "Dar Es Salaam",
    "Postcode": "12102"
  },
  {
    "Location": "Kisopwa",
    "Ward": "Kwembe",
    "District": "Ubungo",
    "Region": "Dar Es Salaam",
    "Postcode": "16111"
  },
  {
    "Location": "Kisukulu",
    "Ward": "Kisukulu",
    "District": "Ilala",
    "Region": "Dar Es Salaam",
    "Postcode": "12122"
  },
  {
    "Location": "Kisutu",
    "Ward": "Kisutu",
    "District": "Ilala CBD",
    "Region": "Dar Es Salaam",
    "Postcode": "11104"
  },
  {
    "Location": "Kisutu",
    "Ward": "Hananasif",
    "District": "Kinondoni",
    "Region": "Dar Es Salaam",
    "Postcode": "14109"
  },
  {
    "Location": "Kitinye",
    "Ward": "Kipunguni",
    "District": "Ilala",
    "Region": "Dar Es Salaam",
    "Postcode": "12121"
  },
  {
    "Location": "Kitonga",
    "Ward": "Upanga Mashariki",
    "District": "Ilala CBD",
    "Region": "Dar Es Salaam",
    "Postcode": "11102"
  },
  {
    "Location": "Kitonga",
    "Ward": "Msongola",
    "District": "Ilala",
    "Region": "Dar Es Salaam",
    "Postcode": "12114"
  },
  {
    "Location": "Kitumbini",
    "Ward": "Mchafukoge",
    "District": "Ilala CBD",
    "Region": "Dar Es Salaam",
    "Postcode": "11105"
  },
  {
    "Location": "Kitunda",
    "Ward": "Kitunda",
    "District": "Ilala",
    "Region": "Dar Es Salaam",
    "Postcode": "12111"
  },
  {
    "Location": "Kiungani",
    "Ward": "Kurasini",
    "District": "Temeke",
    "Region": "Dar Es Salaam",
    "Postcode": "15109"
  },
  {
    "Location": "Kivukoni",
    "Ward": "Kivukoni",
    "District": "Ilala CBD",
    "Region": "Dar Es Salaam",
    "Postcode": "11101"
  },
  {
    "Location": "Kivule",
    "Ward": "Kivule",
    "District": "Ilala",
    "Region": "Dar Es Salaam",
    "Postcode": "12117"
  },
  {
    "Location": "Kivule",
    "Ward": "Majohe",
    "District": "Ilala",
    "Region": "Dar Es Salaam",
    "Postcode": "12113"
  },
  {
    "Location": "Kiwalani",
    "Ward": "Kiwalani",
    "District": "Ilala",
    "Region": "Dar Es Salaam",
    "Postcode": "12108"
  },
  {
    "Location": "Kiyombo",
    "Ward": "Kitunda",
    "District": "Ilala",
    "Region": "Dar Es Salaam",
    "Postcode": "12111"
  },
  {
    "Location": "Kizani",
    "Ward": "Somangila",
    "District": "Kigamboni",
    "Region": "Dar Es Salaam",
    "Postcode": "17102"
  },
  {
    "Location": "Kizinga",
    "Ward": "Mbagala",
    "District": "Temeke",
    "Region": "Dar Es Salaam",
    "Postcode": "15113"
  },
  {
    "Location": "Kizito Huonjwa",
    "Ward": "Kimbiji",
    "District": "Kigamboni",
    "Region": "Dar Es Salaam",
    "Postcode": "17101"
  },
  {
    "Location": "Kiziza",
    "Ward": "Kibada",
    "District": "Kigamboni",
    "Region": "Dar Es Salaam",
    "Postcode": "17109"
  },
  {
    "Location": "Kizuiani",
    "Ward": "Mbagala Kuu",
    "District": "Temeke",
    "Region": "Dar Es Salaam",
    "Postcode": "15112"
  },
  {
    "Location": "Kombo",
    "Ward": "Vingunguti",
    "District": "Ilala",
    "Region": "Dar Es Salaam",
    "Postcode": "12109"
  },
  {
    "Location": "Kondo",
    "Ward": "Kunduchi",
    "District": "Kinondoni",
    "Region": "Dar Es Salaam",
    "Postcode": "14122"
  },
  {
    "Location": "Kongowe",
    "Ward": "Toangoma",
    "District": "Temeke",
    "Region": "Dar Es Salaam",
    "Postcode": "15118"
  },
  {
    "Location": "Kulangwa",
    "Ward": "Goba",
    "District": "Ubungo",
    "Region": "Dar Es Salaam",
    "Postcode": "16112"
  },
  {
    "Location": "Kumbukumbu",
    "Ward": "Kinondoni",
    "District": "Kinondoni",
    "Region": "Dar Es Salaam",
    "Postcode": "14110"
  },
  {
    "Location": "Kunguru",
    "Ward": "Goba",
    "District": "Ubungo",
    "Region": "Dar Es Salaam",
    "Postcode": "16112"
  },
  {
    "Location": "Kurasini",
    "Ward": "Kurasini",
    "District": "Temeke",
    "Region": "Dar Es Salaam",
    "Postcode": "15109"
  },
  {
    "Location": "Kurasini Mji Mpya",
    "Ward": "Charambe",
    "District": "Temeke",
    "Region": "Dar Es Salaam",
    "Postcode": "15117"
  },
  {
    "Location": "Kwa chale",
    "Ward": "Kimbiji",
    "District": "Kigamboni",
    "Region": "Dar Es Salaam",
    "Postcode": "17101"
  },
  {
    "Location": "Kwa Jongo",
    "Ward": "Makurumla",
    "District": "Ubungo",
    "Region": "Dar Es Salaam",
    "Postcode": "16107"
  },
  {
    "Location": "Kwa Kopa",
    "Ward": "Mwananyamala",
    "District": "Kinondoni",
    "Region": "Dar Es Salaam",
    "Postcode": "14108"
  },
  {
    "Location": "Kwa Morisi",
    "Ward": "Pembamnazi",
    "District": "Kigamboni",
    "Region": "Dar Es Salaam",
    "Postcode": "17105"
  },
  {
    "Location": "Kwa mzungu",
    "Ward": "Kilungule",
    "District": "Temeke",
    "Region": "Dar Es Salaam",
    "Postcode": "15132"
  },
  {
    "Location": "Kwa Tumbo",
    "Ward": "Tandale",
    "District": "Kinondoni",
    "Region": "Dar Es Salaam",
    "Postcode": "14106"
  },
  {
    "Location": "Kwa Yusuph",
    "Ward": "Msigani",
    "District": "Ubungo",
    "Region": "Dar Es Salaam",
    "Postcode": "16114"
  },
  {
    "Location": "Kwalimbaga",
    "Ward": "Kinyerezi",
    "District": "Ilala",
    "Region": "Dar Es Salaam",
    "Postcode": "12116"
  },
  {
    "Location": "Kwanyoka",
    "Ward": "Kiburugwa",
    "District": "Temeke",
    "Region": "Dar Es Salaam",
    "Postcode": "15128"
  },
  {
    "Location": "Kwembe",
    "Ward": "Kwembe",
    "District": "Ubungo",
    "Region": "Dar Es Salaam",
    "Postcode": "16111"
  },
  {
    "Location": "Lingato",
    "Ward": "Kisarawe Ii",
    "District": "Kigamboni",
    "Region": "Dar Es Salaam",
    "Postcode": "17104"
  },
  {
    "Location": "Liwiti",
    "Ward": "Liwiti",
    "District": "Ilala",
    "Region": "Dar Es Salaam",
    "Postcode": "12119"
  },
  {
    "Location": "Lubakaya",
    "Ward": "Zingiziwa",
    "District": "Ilala",
    "Region": "Dar Es Salaam",
    "Postcode": "12125"
  },
  {
    "Location": "Luguruni",
    "Ward": "Kwembe",
    "District": "Ubungo",
    "Region": "Dar Es Salaam",
    "Postcode": "16111"
  },
  {
    "Location": "Luhanga",
    "Ward": "Kisukulu",
    "District": "Ilala",
    "Region": "Dar Es Salaam",
    "Postcode": "12122"
  },
  {
    "Location": "Luis",
    "Ward": "Mbezi",
    "District": "Ubungo",
    "Region": "Dar Es Salaam",
    "Postcode": "16113"
  },
  {
    "Location": "Lukomi",
    "Ward": "Chanika",
    "District": "Ilala",
    "Region": "Dar Es Salaam",
    "Postcode": "12115"
  },
  {
    "Location": "Lukooni",
    "Ward": "Chanika",
    "District": "Ilala",
    "Region": "Dar Es Salaam",
    "Postcode": "12115"
  },
  {
    "Location": "Mabatini",
    "Ward": "Tandika",
    "District": "Temeke",
    "Region": "Dar Es Salaam",
    "Postcode": "15107"
  },
  {
    "Location": "Mabibo",
    "Ward": "Mabibo",
    "District": "Ubungo",
    "Region": "Dar Es Salaam",
    "Postcode": "16109"
  },
  {
    "Location": "Mabibo Farasi",
    "Ward": "Mabibo",
    "District": "Ubungo",
    "Region": "Dar Es Salaam",
    "Postcode": "16109"
  },
  {
    "Location": "Mabwe Pande",
    "Ward": "Mabwepande",
    "District": "Kinondoni",
    "Region": "Dar Es Salaam",
    "Postcode": "14134"
  },
  {
    "Location": "Machimbo",
    "Ward": "Kipunguni",
    "District": "Ilala",
    "Region": "Dar Es Salaam",
    "Postcode": "12121"
  },
  {
    "Location": "Machimbo",
    "Ward": "Liwiti",
    "District": "Ilala",
    "Region": "Dar Es Salaam",
    "Postcode": "12119"
  },
  {
    "Location": "Machimbo",
    "Ward": "Yombo Vituka",
    "District": "Temeke",
    "Region": "Dar Es Salaam",
    "Postcode": "15115"
  },
  {
    "Location": "Machinjioni",
    "Ward": "Mianzini",
    "District": "Temeke",
    "Region": "Dar Es Salaam",
    "Postcode": "15130"
  },
  {
    "Location": "Machinjioni A",
    "Ward": "Charambe",
    "District": "Temeke",
    "Region": "Dar Es Salaam",
    "Postcode": "15117"
  },
  {
    "Location": "Madale",
    "Ward": "Wazo",
    "District": "Kinondoni",
    "Region": "Dar Es Salaam",
    "Postcode": "14130"
  },
  {
    "Location": "Madege",
    "Ward": "Kisarawe Ii",
    "District": "Kigamboni",
    "Region": "Dar Es Salaam",
    "Postcode": "17104"
  },
  {
    "Location": "Madenge",
    "Ward": "Buguruni",
    "District": "Ilala",
    "Region": "Dar Es Salaam",
    "Postcode": "12102"
  },
  {
    "Location": "Mafuriko",
    "Ward": "Ilala",
    "District": "Ilala",
    "Region": "Dar Es Salaam",
    "Postcode": "12101"
  },
  {
    "Location": "Maganga",
    "Ward": "Temeke",
    "District": "Temeke",
    "Region": "Dar Es Salaam",
    "Postcode": "15101"
  },
  {
    "Location": "Magengeni",
    "Ward": "Chamazi",
    "District": "Temeke",
    "Region": "Dar Es Salaam",
    "Postcode": "15116"
  },
  {
    "Location": "Magogoni",
    "Ward": "Tungi",
    "District": "Kigamboni",
    "Region": "Dar Es Salaam",
    "Postcode": "17103"
  },
  {
    "Location": "Magogoni",
    "Ward": "Yombo Vituka",
    "District": "Temeke",
    "Region": "Dar Es Salaam",
    "Postcode": "15115"
  },
  {
    "Location": "Magole",
    "Ward": "Mzinga",
    "District": "Ilala",
    "Region": "Dar Es Salaam",
    "Postcode": "12126"
  },
  {
    "Location": "Magore A",
    "Ward": "Kivule",
    "District": "Ilala",
    "Region": "Dar Es Salaam",
    "Postcode": "12117"
  },
  {
    "Location": "Maguruwe",
    "Ward": "Tandika",
    "District": "Temeke",
    "Region": "Dar Es Salaam",
    "Postcode": "15107"
  },
  {
    "Location": "Mahenge",
    "Ward": "Pembamnazi",
    "District": "Kigamboni",
    "Region": "Dar Es Salaam",
    "Postcode": "17105"
  },
  {
    "Location": "Majengo",
    "Ward": "Vijibweni",
    "District": "Kigamboni",
    "Region": "Dar Es Salaam",
    "Postcode": "17108"
  },
  {
    "Location": "Majengo",
    "Ward": "Vingunguti",
    "District": "Ilala",
    "Region": "Dar Es Salaam",
    "Postcode": "12109"
  },
  {
    "Location": "Majimatitu",
    "Ward": "Kibondemaji",
    "District": "Temeke",
    "Region": "Dar Es Salaam",
    "Postcode": "15131"
  },
  {
    "Location": "Majimatitu A",
    "Ward": "Mianzini",
    "District": "Temeke",
    "Region": "Dar Es Salaam",
    "Postcode": "15130"
  },
  {
    "Location": "Majimatitu B",
    "Ward": "Kilungule",
    "District": "Temeke",
    "Region": "Dar Es Salaam",
    "Postcode": "15132"
  },
  {
    "Location": "Makabe",
    "Ward": "Mbezi",
    "District": "Ubungo",
    "Region": "Dar Es Salaam",
    "Postcode": "16113"
  },
  {
    "Location": "Makangarawe",
    "Ward": "Makangarawe",
    "District": "Temeke",
    "Region": "Dar Es Salaam",
    "Postcode": "15114"
  },
  {
    "Location": "Makangira",
    "Ward": "Msasani",
    "District": "Kinondoni",
    "Region": "Dar Es Salaam",
    "Postcode": "14111"
  },
  {
    "Location": "Makanya",
    "Ward": "Ndugumbi",
    "District": "Kinondoni",
    "Region": "Dar Es Salaam",
    "Postcode": "14104"
  },
  {
    "Location": "Makoka",
    "Ward": "Makuburi",
    "District": "Ubungo",
    "Region": "Dar Es Salaam",
    "Postcode": "16106"
  },
  {
    "Location": "Makongo",
    "Ward": "Makongo",
    "District": "Kinondoni",
    "Region": "Dar Es Salaam",
    "Postcode": "14129"
  },
  {
    "Location": "Makuburi Kibangu",
    "Ward": "Makuburi",
    "District": "Ubungo",
    "Region": "Dar Es Salaam",
    "Postcode": "16106"
  },
  {
    "Location": "Makuka Kaskazini",
    "Ward": "Mbagala Kuu",
    "District": "Temeke",
    "Region": "Dar Es Salaam",
    "Postcode": "15112"
  },
  {
    "Location": "Makuka Kusini",
    "Ward": "Mbagala Kuu",
    "District": "Temeke",
    "Region": "Dar Es Salaam",
    "Postcode": "15112"
  },
  {
    "Location": "Makumbusho",
    "Ward": "Makumbusho",
    "District": "Kinondoni",
    "Region": "Dar Es Salaam",
    "Postcode": "14107"
  },
  {
    "Location": "Makumbusho",
    "Ward": "Mzimuni",
    "District": "Kinondoni",
    "Region": "Dar Es Salaam",
    "Postcode": "14102"
  },
  {
    "Location": "Makuti \"A\"",
    "Ward": "Magomeni",
    "District": "Kinondoni",
    "Region": "Dar Es Salaam",
    "Postcode": "14101"
  },
  {
    "Location": "Makuti \"B\"",
    "Ward": "Magomeni",
    "District": "Kinondoni",
    "Region": "Dar Es Salaam",
    "Postcode": "14101"
  },
  {
    "Location": "Malamba Mawili",
    "Ward": "Msigani",
    "District": "Ubungo",
    "Region": "Dar Es Salaam",
    "Postcode": "16114"
  },
  {
    "Location": "Malapa",
    "Ward": "Buguruni",
    "District": "Ilala",
    "Region": "Dar Es Salaam",
    "Postcode": "12102"
  },
  {
    "Location": "Malela",
    "Ward": "Toangoma",
    "District": "Temeke",
    "Region": "Dar Es Salaam",
    "Postcode": "15118"
  },
  {
    "Location": "Malimbika",
    "Ward": "Somangila",
    "District": "Kigamboni",
    "Region": "Dar Es Salaam",
    "Postcode": "17102"
  },
  {
    "Location": "Malindi Estate",
    "Ward": "Mbweni",
    "District": "Kinondoni",
    "Region": "Dar Es Salaam",
    "Postcode": "14126"
  },
  {
    "Location": "Maluzuku",
    "Ward": "Mnyamani",
    "District": "Ilala",
    "Region": "Dar Es Salaam",
    "Postcode": "12118"
  },
  {
    "Location": "Mamboleo \"A\"",
    "Ward": "Sandali",
    "District": "Temeke",
    "Region": "Dar Es Salaam",
    "Postcode": "15102"
  },
  {
    "Location": "Mamboleo \"B\"",
    "Ward": "Sandali",
    "District": "Temeke",
    "Region": "Dar Es Salaam",
    "Postcode": "15102"
  },
  {
    "Location": "Mandela",
    "Ward": "Tabata",
    "District": "Ilala",
    "Region": "Dar Es Salaam",
    "Postcode": "12103"
  },
  {
    "Location": "Mangaya",
    "Ward": "Mbagala",
    "District": "Temeke",
    "Region": "Dar Es Salaam",
    "Postcode": "15113"
  },
  {
    "Location": "Maputo",
    "Ward": "Mbweni",
    "District": "Kinondoni",
    "Region": "Dar Es Salaam",
    "Postcode": "14126"
  },
  {
    "Location": "Markaz",
    "Ward": "Ukonga",
    "District": "Ilala",
    "Region": "Dar Es Salaam",
    "Postcode": "12107"
  },
  {
    "Location": "Masaki",
    "Ward": "Toangoma",
    "District": "Temeke",
    "Region": "Dar Es Salaam",
    "Postcode": "15118"
  },
  {
    "Location": "Masaki",
    "Ward": "Msasani",
    "District": "Kinondoni",
    "Region": "Dar Es Salaam",
    "Postcode": "14111"
  },
  {
    "Location": "Mashine ya maji",
    "Ward": "Buza",
    "District": "Temeke",
    "Region": "Dar Es Salaam",
    "Postcode": "15125"
  },
  {
    "Location": "Masuliza",
    "Ward": "Toangoma",
    "District": "Temeke",
    "Region": "Dar Es Salaam",
    "Postcode": "15118"
  },
  {
    "Location": "Matangini",
    "Ward": "Saranga",
    "District": "Ubungo",
    "Region": "Dar Es Salaam",
    "Postcode": "16105"
  },
  {
    "Location": "Matokeo",
    "Ward": "Mabibo",
    "District": "Ubungo",
    "Region": "Dar Es Salaam",
    "Postcode": "16109"
  },
  {
    "Location": "Matosa",
    "Ward": "Goba",
    "District": "Ubungo",
    "Region": "Dar Es Salaam",
    "Postcode": "16112"
  },
  {
    "Location": "Matumbi",
    "Ward": "Temeke",
    "District": "Temeke",
    "Region": "Dar Es Salaam",
    "Postcode": "15101"
  },
  {
    "Location": "Matumbi",
    "Ward": "Tabata",
    "District": "Ilala",
    "Region": "Dar Es Salaam",
    "Postcode": "12103"
  },
  {
    "Location": "Mavurunza",
    "Ward": "Kimara",
    "District": "Ubungo",
    "Region": "Dar Es Salaam",
    "Postcode": "16104"
  },
  {
    "Location": "Maweni",
    "Ward": "Mjimwema",
    "District": "Kigamboni",
    "Region": "Dar Es Salaam",
    "Postcode": "17106"
  },
  {
    "Location": "Mazizini",
    "Ward": "Ukonga",
    "District": "Ilala",
    "Region": "Dar Es Salaam",
    "Postcode": "12107"
  },
  {
    "Location": "Mbagala",
    "Ward": "Mbagala",
    "District": "Temeke",
    "Region": "Dar Es Salaam",
    "Postcode": "15113"
  },
  {
    "Location": "Mbagala kuu Kaskazini",
    "Ward": "Mbagala Kuu",
    "District": "Temeke",
    "Region": "Dar Es Salaam",
    "Postcode": "15112"
  },
  {
    "Location": "Mbagala kuu Magharibi",
    "Ward": "Mbagala Kuu",
    "District": "Temeke",
    "Region": "Dar Es Salaam",
    "Postcode": "15112"
  },
  {
    "Location": "Mbagala kuu mashariki",
    "Ward": "Mbagala Kuu",
    "District": "Temeke",
    "Region": "Dar Es Salaam",
    "Postcode": "15112"
  },
  {
    "Location": "Mbezi Beach \"A\"",
    "Ward": "Kawe",
    "District": "Kinondoni",
    "Region": "Dar Es Salaam",
    "Postcode": "14121"
  },
  {
    "Location": "Mbezi Beach \"B\"",
    "Ward": "Kawe",
    "District": "Kinondoni",
    "Region": "Dar Es Salaam",
    "Postcode": "14121"
  },
  {
    "Location": "Mbezi Juu",
    "Ward": "Mbezi Juu",
    "District": "Kinondoni",
    "Region": "Dar Es Salaam",
    "Postcode": "14128"
  },
  {
    "Location": "Mbezi Kati",
    "Ward": "Mbezi Juu",
    "District": "Kinondoni",
    "Region": "Dar Es Salaam",
    "Postcode": "14128"
  },
  {
    "Location": "Mbezi Luis",
    "Ward": "Mbezi",
    "District": "Ubungo",
    "Region": "Dar Es Salaam",
    "Postcode": "16113"
  },
  {
    "Location": "Mbezi Mtoni",
    "Ward": "Mbezi Juu",
    "District": "Kinondoni",
    "Region": "Dar Es Salaam",
    "Postcode": "14128"
  },
  {
    "Location": "Mbonde",
    "Ward": "Makangarawe",
    "District": "Temeke",
    "Region": "Dar Es Salaam",
    "Postcode": "15114"
  },
  {
    "Location": "Mbondole",
    "Ward": "Msongola",
    "District": "Ilala",
    "Region": "Dar Es Salaam",
    "Postcode": "12114"
  },
  {
    "Location": "Mbopo",
    "Ward": "Mabwepande",
    "District": "Kinondoni",
    "Region": "Dar Es Salaam",
    "Postcode": "14134"
  },
  {
    "Location": "Mbuyuni",
    "Ward": "Azimio",
    "District": "Temeke",
    "Region": "Dar Es Salaam",
    "Postcode": "15106"
  },
  {
    "Location": "Mbuyuni",
    "Ward": "Makongo",
    "District": "Kinondoni",
    "Region": "Dar Es Salaam",
    "Postcode": "14129"
  },
  {
    "Location": "Mbuyuni",
    "Ward": "Makumbusho",
    "District": "Kinondoni",
    "Region": "Dar Es Salaam",
    "Postcode": "14107"
  },
  {
    "Location": "Mbwamaji",
    "Ward": "Somangila",
    "District": "Kigamboni",
    "Region": "Dar Es Salaam",
    "Postcode": "17102"
  },
  {
    "Location": "Mbweni",
    "Ward": "Mbweni",
    "District": "Kinondoni",
    "Region": "Dar Es Salaam",
    "Postcode": "14126"
  },
  {
    "Location": "Mchafukoge",
    "Ward": "Mchafukoge",
    "District": "Ilala CBD",
    "Region": "Dar Es Salaam",
    "Postcode": "11105"
  },
  {
    "Location": "Mchangani",
    "Ward": "Makumbusho",
    "District": "Kinondoni",
    "Region": "Dar Es Salaam",
    "Postcode": "14107"
  },
  {
    "Location": "Mchikichini",
    "Ward": "Kibondemaji",
    "District": "Temeke",
    "Region": "Dar Es Salaam",
    "Postcode": "15131"
  },
  {
    "Location": "Mfaume",
    "Ward": "Upanga Magharibi",
    "District": "Ilala CBD",
    "Region": "Dar Es Salaam",
    "Postcode": "11103"
  },
  {
    "Location": "Mfaume",
    "Ward": "Segerea",
    "District": "Ilala",
    "Region": "Dar Es Salaam",
    "Postcode": "12105"
  },
  {
    "Location": "Mferejini",
    "Ward": "Manzese",
    "District": "Ubungo",
    "Region": "Dar Es Salaam",
    "Postcode": "16108"
  },
  {
    "Location": "Mgeni nani",
    "Ward": "Kijichi",
    "District": "Temeke",
    "Region": "Dar Es Salaam",
    "Postcode": "15129"
  },
  {
    "Location": "Mgeule",
    "Ward": "Buyuni",
    "District": "Ilala",
    "Region": "Dar Es Salaam",
    "Postcode": "12124"
  },
  {
    "Location": "Mgeule juu",
    "Ward": "Buyuni",
    "District": "Ilala",
    "Region": "Dar Es Salaam",
    "Postcode": "12124"
  },
  {
    "Location": "Mgombani",
    "Ward": "Segerea",
    "District": "Ilala",
    "Region": "Dar Es Salaam",
    "Postcode": "12105"
  },
  {
    "Location": "Mgulani (Keko Juu)",
    "Ward": "Miburani",
    "District": "Temeke",
    "Region": "Dar Es Salaam",
    "Postcode": "15105"
  },
  {
    "Location": "Mianzini",
    "Ward": "Kisukulu",
    "District": "Ilala",
    "Region": "Dar Es Salaam",
    "Postcode": "12122"
  },
  {
    "Location": "Mianzini",
    "Ward": "Kisukulu",
    "District": "Ilala",
    "Region": "Dar Es Salaam",
    "Postcode": "12122"
  },
  {
    "Location": "Mianzini",
    "Ward": "Makurumla",
    "District": "Ubungo",
    "Region": "Dar Es Salaam",
    "Postcode": "16107"
  },
  {
    "Location": "Miburani",
    "Ward": "Miburani",
    "District": "Temeke",
    "Region": "Dar Es Salaam",
    "Postcode": "15105"
  },
  {
    "Location": "Michungwani",
    "Ward": "Saranga",
    "District": "Ubungo",
    "Region": "Dar Es Salaam",
    "Postcode": "16105"
  },
  {
    "Location": "Midizini",
    "Ward": "Manzese",
    "District": "Ubungo",
    "Region": "Dar Es Salaam",
    "Postcode": "16108"
  },
  {
    "Location": "Miembeni",
    "Ward": "Vingunguti",
    "District": "Ilala",
    "Region": "Dar Es Salaam",
    "Postcode": "12109"
  },
  {
    "Location": "Migombani",
    "Ward": "Minazi Mirefu",
    "District": "Ilala",
    "Region": "Dar Es Salaam",
    "Postcode": "12123"
  },
  {
    "Location": "Mikenge",
    "Ward": "Kimbiji",
    "District": "Kigamboni",
    "Region": "Dar Es Salaam",
    "Postcode": "17101"
  },
  {
    "Location": "Mikocheni \"A\"",
    "Ward": "Mikocheni",
    "District": "Kinondoni",
    "Region": "Dar Es Salaam",
    "Postcode": "14112"
  },
  {
    "Location": "Mikocheni \"B\"",
    "Ward": "Mikocheni",
    "District": "Kinondoni",
    "Region": "Dar Es Salaam",
    "Postcode": "14112"
  },
  {
    "Location": "Mikoroshini",
    "Ward": "Ndugumbi",
    "District": "Kinondoni",
    "Region": "Dar Es Salaam",
    "Postcode": "14104"
  },
  {
    "Location": "Mikoroshoni",
    "Ward": "Msasani",
    "District": "Kinondoni",
    "Region": "Dar Es Salaam",
    "Postcode": "14111"
  },
  {
    "Location": "Mikwambe",
    "Ward": "Toangoma",
    "District": "Temeke",
    "Region": "Dar Es Salaam",
    "Postcode": "15118"
  },
  {
    "Location": "Minazi Mirefu",
    "Ward": "Minazi Mirefu",
    "District": "Ilala",
    "Region": "Dar Es Salaam",
    "Postcode": "12123"
  },
  {
    "Location": "Minazini",
    "Ward": "Makumbusho",
    "District": "Kinondoni",
    "Region": "Dar Es Salaam",
    "Postcode": "14107"
  },
  {
    "Location": "Minazini",
    "Ward": "Kurasini",
    "District": "Temeke",
    "Region": "Dar Es Salaam",
    "Postcode": "15109"
  },
  {
    "Location": "Minondo",
    "Ward": "Somangila",
    "District": "Kigamboni",
    "Region": "Dar Es Salaam",
    "Postcode": "17102"
  },
  {
    "Location": "Misewe",
    "Ward": "Liwiti",
    "District": "Ilala",
    "Region": "Dar Es Salaam",
    "Postcode": "12119"
  },
  {
    "Location": "Misheni",
    "Ward": "Kijichi",
    "District": "Temeke",
    "Region": "Dar Es Salaam",
    "Postcode": "15129"
  },
  {
    "Location": "Mission Quarter",
    "Ward": "Mchikichini",
    "District": "Ilala CBD",
    "Region": "Dar Es Salaam",
    "Postcode": "11109"
  },
  {
    "Location": "Mivinjeni",
    "Ward": "Kurasini",
    "District": "Temeke",
    "Region": "Dar Es Salaam",
    "Postcode": "15109"
  },
  {
    "Location": "Mivumoni",
    "Ward": "Wazo",
    "District": "Kinondoni",
    "Region": "Dar Es Salaam",
    "Postcode": "14130"
  },
  {
    "Location": "Mji Mpya",
    "Ward": "Mnyamani",
    "District": "Ilala",
    "Region": "Dar Es Salaam",
    "Postcode": "12118"
  },
  {
    "Location": "Mji mpya",
    "Ward": "Buza",
    "District": "Temeke",
    "Region": "Dar Es Salaam",
    "Postcode": "15125"
  },
  {
    "Location": "Mji Mpya",
    "Ward": "Azimio",
    "District": "Temeke",
    "Region": "Dar Es Salaam",
    "Postcode": "15106"
  },
  {
    "Location": "Mji Mpya",
    "Ward": "Saranga",
    "District": "Ubungo",
    "Region": "Dar Es Salaam",
    "Postcode": "16105"
  },
  {
    "Location": "Mji Mpya",
    "Ward": "Majohe",
    "District": "Ilala",
    "Region": "Dar Es Salaam",
    "Postcode": "12113"
  },
  {
    "Location": "Mjimpya",
    "Ward": "Kwembe",
    "District": "Ubungo",
    "Region": "Dar Es Salaam",
    "Postcode": "16111"
  },
  {
    "Location": "Mjimpya",
    "Ward": "Mabwepande",
    "District": "Kinondoni",
    "Region": "Dar Es Salaam",
    "Postcode": "14134"
  },
  {
    "Location": "Mjimpya",
    "Ward": "Kipawa",
    "District": "Ilala",
    "Region": "Dar Es Salaam",
    "Postcode": "12106"
  },
  {
    "Location": "Mjimwema",
    "Ward": "Mjimwema",
    "District": "Kigamboni",
    "Region": "Dar Es Salaam",
    "Postcode": "17106"
  },
  {
    "Location": "Mkamba",
    "Ward": "Kisarawe Ii",
    "District": "Kigamboni",
    "Region": "Dar Es Salaam",
    "Postcode": "17104"
  },
  {
    "Location": "Mkera",
    "Ward": "Msongola",
    "District": "Ilala",
    "Region": "Dar Es Salaam",
    "Postcode": "12114"
  },
  {
    "Location": "Mkoani",
    "Ward": "Bunju",
    "District": "Kinondoni",
    "Region": "Dar Es Salaam",
    "Postcode": "14125"
  },
  {
    "Location": "Mkondogwa",
    "Ward": "Chamazi",
    "District": "Temeke",
    "Region": "Dar Es Salaam",
    "Postcode": "15116"
  },
  {
    "Location": "Mkunduge",
    "Ward": "Tandale",
    "District": "Kinondoni",
    "Region": "Dar Es Salaam",
    "Postcode": "14106"
  },
  {
    "Location": "Mkunguni A",
    "Ward": "Hananasif",
    "District": "Kinondoni",
    "Region": "Dar Es Salaam",
    "Postcode": "14109"
  },
  {
    "Location": "Mkunguni B",
    "Ward": "Hananasif",
    "District": "Kinondoni",
    "Region": "Dar Es Salaam",
    "Postcode": "14109"
  },
  {
    "Location": "Mkwajuni",
    "Ward": "Somangila",
    "District": "Kigamboni",
    "Region": "Dar Es Salaam",
    "Postcode": "17102"
  },
  {
    "Location": "Mkwajuni",
    "Ward": "Vijibweni",
    "District": "Kigamboni",
    "Region": "Dar Es Salaam",
    "Postcode": "17108"
  },
  {
    "Location": "Mkwida",
    "Ward": "Sandali",
    "District": "Temeke",
    "Region": "Dar Es Salaam",
    "Postcode": "15102"
  },
  {
    "Location": "Mlalakuwa",
    "Ward": "Makongo",
    "District": "Kinondoni",
    "Region": "Dar Es Salaam",
    "Postcode": "14129"
  },
  {
    "Location": "Mlongazila",
    "Ward": "Kwembe",
    "District": "Ubungo",
    "Region": "Dar Es Salaam",
    "Postcode": "16111"
  },
  {
    "Location": "Mnazi Mmoja",
    "Ward": "Jangwani",
    "District": "Ilala CBD",
    "Region": "Dar Es Salaam",
    "Postcode": "11108"
  },
  {
    "Location": "Mnazi Mmoja",
    "Ward": "Manzese",
    "District": "Ubungo",
    "Region": "Dar Es Salaam",
    "Postcode": "16108"
  },
  {
    "Location": "Mnyamani",
    "Ward": "Mnyamani",
    "District": "Ilala",
    "Region": "Dar Es Salaam",
    "Postcode": "12118"
  },
  {
    "Location": "Mogo",
    "Ward": "Kipawa",
    "District": "Ilala",
    "Region": "Dar Es Salaam",
    "Postcode": "12106"
  },
  {
    "Location": "Mongo la Ndege",
    "Ward": "Ukonga",
    "District": "Ilala",
    "Region": "Dar Es Salaam",
    "Postcode": "12107"
  },
  {
    "Location": "Moringe",
    "Ward": "Mbagala",
    "District": "Temeke",
    "Region": "Dar Es Salaam",
    "Postcode": "15113"
  },
  {
    "Location": "Mpakani",
    "Ward": "Kwembe",
    "District": "Ubungo",
    "Region": "Dar Es Salaam",
    "Postcode": "16111"
  },
  {
    "Location": "Mpakani",
    "Ward": "Mbagala Kuu",
    "District": "Temeke",
    "Region": "Dar Es Salaam",
    "Postcode": "15112"
  },
  {
    "Location": "Mpakani",
    "Ward": "Ndugumbi",
    "District": "Kinondoni",
    "Region": "Dar Es Salaam",
    "Postcode": "14104"
  },
  {
    "Location": "Mpakani \"A\"",
    "Ward": "Kijitonyama",
    "District": "Kinondoni",
    "Region": "Dar Es Salaam",
    "Postcode": "14113"
  },
  {
    "Location": "Mpakani \"B\"",
    "Ward": "Kijitonyama",
    "District": "Kinondoni",
    "Region": "Dar Es Salaam",
    "Postcode": "14113"
  },
  {
    "Location": "Mpiji Magohe",
    "Ward": "Mbezi",
    "District": "Ubungo",
    "Region": "Dar Es Salaam",
    "Postcode": "16113"
  },
  {
    "Location": "Mpiji Mbweni",
    "Ward": "Mbweni",
    "District": "Kinondoni",
    "Region": "Dar Es Salaam",
    "Postcode": "14126"
  },
  {
    "Location": "Mpogo",
    "Ward": "Sandali",
    "District": "Temeke",
    "Region": "Dar Es Salaam",
    "Postcode": "15102"
  },
  {
    "Location": "Mponda",
    "Ward": "Mianzini",
    "District": "Temeke",
    "Region": "Dar Es Salaam",
    "Postcode": "15130"
  },
  {
    "Location": "Msakala",
    "Ward": "Makangarawe",
    "District": "Temeke",
    "Region": "Dar Es Salaam",
    "Postcode": "15114"
  },
  {
    "Location": "Msakuzi",
    "Ward": "Kwembe",
    "District": "Ubungo",
    "Region": "Dar Es Salaam",
    "Postcode": "16111"
  },
  {
    "Location": "Msakuzi",
    "Ward": "Kwembe",
    "District": "Ubungo",
    "Region": "Dar Es Salaam",
    "Postcode": "16111"
  },
  {
    "Location": "Msakuzi Kusini",
    "Ward": "Mbezi",
    "District": "Ubungo",
    "Region": "Dar Es Salaam",
    "Postcode": "16113"
  },
  {
    "Location": "Msewe",
    "Ward": "Ubungo",
    "District": "Ubungo",
    "Region": "Dar Es Salaam",
    "Postcode": "16103"
  },
  {
    "Location": "Mshikamano",
    "Ward": "Mbezi",
    "District": "Ubungo",
    "Region": "Dar Es Salaam",
    "Postcode": "16113"
  },
  {
    "Location": "Msigani",
    "Ward": "Msigani",
    "District": "Ubungo",
    "Region": "Dar Es Salaam",
    "Postcode": "16114"
  },
  {
    "Location": "Msimbazi",
    "Ward": "Tabata",
    "District": "Ilala",
    "Region": "Dar Es Salaam",
    "Postcode": "12103"
  },
  {
    "Location": "Msimbazi Bondeni",
    "Ward": "Mchikichini",
    "District": "Ilala CBD",
    "Region": "Dar Es Salaam",
    "Postcode": "11109"
  },
  {
    "Location": "Msimbazi Magharibi",
    "Ward": "Tabata",
    "District": "Ilala",
    "Region": "Dar Es Salaam",
    "Postcode": "12103"
  },
  {
    "Location": "Msingwa",
    "Ward": "Bonyokwa",
    "District": "Ilala",
    "Region": "Dar Es Salaam",
    "Postcode": "12120"
  },
  {
    "Location": "Msingwa",
    "Ward": "Msigani",
    "District": "Ubungo",
    "Region": "Dar Es Salaam",
    "Postcode": "16114"
  },
  {
    "Location": "Msisiri \"A\"",
    "Ward": "Mwananyamala",
    "District": "Kinondoni",
    "Region": "Dar Es Salaam",
    "Postcode": "14108"
  },
  {
    "Location": "Msisiri \"B\"",
    "Ward": "Mwananyamala",
    "District": "Kinondoni",
    "Region": "Dar Es Salaam",
    "Postcode": "14108"
  },
  {
    "Location": "Msolomi",
    "Ward": "Mwananyamala",
    "District": "Kinondoni",
    "Region": "Dar Es Salaam",
    "Postcode": "14108"
  },
  {
    "Location": "Msufini",
    "Ward": "Chamazi",
    "District": "Temeke",
    "Region": "Dar Es Salaam",
    "Postcode": "15116"
  },
  {
    "Location": "Msumi",
    "Ward": "Mbezi",
    "District": "Ubungo",
    "Region": "Dar Es Salaam",
    "Postcode": "16113"
  },
  {
    "Location": "Mtakuja",
    "Ward": "Vingunguti",
    "District": "Ilala",
    "Region": "Dar Es Salaam",
    "Postcode": "12109"
  },
  {
    "Location": "Mtambani",
    "Ward": "Mzimuni",
    "District": "Kinondoni",
    "Region": "Dar Es Salaam",
    "Postcode": "14102"
  },
  {
    "Location": "Mtambani",
    "Ward": "Tabata",
    "District": "Ilala",
    "Region": "Dar Es Salaam",
    "Postcode": "12103"
  },
  {
    "Location": "Mtambani",
    "Ward": "Vingunguti",
    "District": "Ilala",
    "Region": "Dar Es Salaam",
    "Postcode": "12109"
  },
  {
    "Location": "Mtambani \"A\"",
    "Ward": "Jangwani",
    "District": "Ilala CBD",
    "Region": "Dar Es Salaam",
    "Postcode": "11108"
  },
  {
    "Location": "Mtambani \"B\"",
    "Ward": "Jangwani",
    "District": "Ilala CBD",
    "Region": "Dar Es Salaam",
    "Postcode": "11108"
  },
  {
    "Location": "Mtendeni",
    "Ward": "Kisutu",
    "District": "Ilala CBD",
    "Region": "Dar Es Salaam",
    "Postcode": "11104"
  },
  {
    "Location": "Mtimweupe",
    "Ward": "Pembamnazi",
    "District": "Kigamboni",
    "Region": "Dar Es Salaam",
    "Postcode": "17105"
  },
  {
    "Location": "Mtogole",
    "Ward": "Tandale",
    "District": "Kinondoni",
    "Region": "Dar Es Salaam",
    "Postcode": "14106"
  },
  {
    "Location": "Mtongani",
    "Ward": "Kunduchi",
    "District": "Kinondoni",
    "Region": "Dar Es Salaam",
    "Postcode": "14122"
  },
  {
    "Location": "Mtongani",
    "Ward": "Azimio",
    "District": "Temeke",
    "Region": "Dar Es Salaam",
    "Postcode": "15106"
  },
  {
    "Location": "Mtoni",
    "Ward": "Mtoni",
    "District": "Temeke",
    "Region": "Dar Es Salaam",
    "Postcode": "15108"
  },
  {
    "Location": "Mtoni kijichi",
    "Ward": "Kijichi",
    "District": "Temeke",
    "Region": "Dar Es Salaam",
    "Postcode": "15129"
  },
  {
    "Location": "Mtoni Unguja",
    "Ward": "Azimio",
    "District": "Temeke",
    "Region": "Dar Es Salaam",
    "Postcode": "15106"
  },
  {
    "Location": "Muhaltani",
    "Ward": "Tandale",
    "District": "Kinondoni",
    "Region": "Dar Es Salaam",
    "Postcode": "14106"
  },
  {
    "Location": "Muhimbili",
    "Ward": "Pembamnazi",
    "District": "Kigamboni",
    "Region": "Dar Es Salaam",
    "Postcode": "17105"
  },
  {
    "Location": "Mustapha",
    "Ward": "Pugu",
    "District": "Ilala",
    "Region": "Dar Es Salaam",
    "Postcode": "12112"
  },
  {
    "Location": "Muungano",
    "Ward": "Tungi",
    "District": "Kigamboni",
    "Region": "Dar Es Salaam",
    "Postcode": "17103"
  },
  {
    "Location": "Muungano",
    "Ward": "Manzese",
    "District": "Ubungo",
    "Region": "Dar Es Salaam",
    "Postcode": "16108"
  },
  {
    "Location": "Muungano",
    "Ward": "Goba",
    "District": "Ubungo",
    "Region": "Dar Es Salaam",
    "Postcode": "16112"
  },
  {
    "Location": "Mvinjeni",
    "Ward": "Buguruni",
    "District": "Ilala",
    "Region": "Dar Es Salaam",
    "Postcode": "12102"
  },
  {
    "Location": "Mvuleni",
    "Ward": "Manzese",
    "District": "Ubungo",
    "Region": "Dar Es Salaam",
    "Postcode": "16108"
  },
  {
    "Location": "Mvuleni",
    "Ward": "Msongola",
    "District": "Ilala",
    "Region": "Dar Es Salaam",
    "Postcode": "12114"
  },
  {
    "Location": "Mwale",
    "Ward": "Minazi Mirefu",
    "District": "Ilala",
    "Region": "Dar Es Salaam",
    "Postcode": "12123"
  },
  {
    "Location": "Mwanagati",
    "Ward": "Mzinga",
    "District": "Ilala",
    "Region": "Dar Es Salaam",
    "Postcode": "12126"
  },
  {
    "Location": "Mwanamtoti",
    "Ward": "Kijichi",
    "District": "Temeke",
    "Region": "Dar Es Salaam",
    "Postcode": "15129"
  },
  {
    "Location": "Mwaninga",
    "Ward": "Kisarawe Ii",
    "District": "Kigamboni",
    "Region": "Dar Es Salaam",
    "Postcode": "17104"
  },
  {
    "Location": "Mwanzo Mgumu",
    "Ward": "Somangila",
    "District": "Kigamboni",
    "Region": "Dar Es Salaam",
    "Postcode": "17102"
  },
  {
    "Location": "Mwapemba",
    "Ward": "Toangoma",
    "District": "Temeke",
    "Region": "Dar Es Salaam",
    "Postcode": "15118"
  },
  {
    "Location": "Mwasonga",
    "Ward": "Kisarawe Ii",
    "District": "Kigamboni",
    "Region": "Dar Es Salaam",
    "Postcode": "17104"
  },
  {
    "Location": "Mwembe Madafu",
    "Ward": "Ukonga",
    "District": "Ilala",
    "Region": "Dar Es Salaam",
    "Postcode": "12107"
  },
  {
    "Location": "Mwembebamia",
    "Ward": "Chamazi",
    "District": "Temeke",
    "Region": "Dar Es Salaam",
    "Postcode": "15116"
  },
  {
    "Location": "Mwembeladu",
    "Ward": "Sandali",
    "District": "Temeke",
    "Region": "Dar Es Salaam",
    "Postcode": "15102"
  },
  {
    "Location": "Mwembemnofu",
    "Ward": "Sandali",
    "District": "Temeke",
    "Region": "Dar Es Salaam",
    "Postcode": "15102"
  },
  {
    "Location": "Mwembeni",
    "Ward": "Manzese",
    "District": "Ubungo",
    "Region": "Dar Es Salaam",
    "Postcode": "16108"
  },
  {
    "Location": "Mwenge",
    "Ward": "Kijitonyama",
    "District": "Kinondoni",
    "Region": "Dar Es Salaam",
    "Postcode": "14113"
  },
  {
    "Location": "Mwera",
    "Ward": "Somangila",
    "District": "Kigamboni",
    "Region": "Dar Es Salaam",
    "Postcode": "17102"
  },
  {
    "Location": "Mwinjuma",
    "Ward": "Mwananyamala",
    "District": "Kinondoni",
    "Region": "Dar Es Salaam",
    "Postcode": "14108"
  },
  {
    "Location": "Mwinyimkuu",
    "Ward": "Mzimuni",
    "District": "Kinondoni",
    "Region": "Dar Es Salaam",
    "Postcode": "14102"
  },
  {
    "Location": "Mwongozo",
    "Ward": "Makuburi",
    "District": "Ubungo",
    "Region": "Dar Es Salaam",
    "Postcode": "16106"
  },
  {
    "Location": "Mzambarauni",
    "Ward": "Yombo Vituka",
    "District": "Temeke",
    "Region": "Dar Es Salaam",
    "Postcode": "15115"
  },
  {
    "Location": "Mzimuni",
    "Ward": "Kawe",
    "District": "Kinondoni",
    "Region": "Dar Es Salaam",
    "Postcode": "14121"
  },
  {
    "Location": "Mzinga",
    "Ward": "Mzinga",
    "District": "Ilala",
    "Region": "Dar Es Salaam",
    "Postcode": "12126"
  },
  {
    "Location": "Mzinga 'A'",
    "Ward": "Toangoma",
    "District": "Temeke",
    "Region": "Dar Es Salaam",
    "Postcode": "15118"
  },
  {
    "Location": "Mzinga 'B'",
    "Ward": "Toangoma",
    "District": "Temeke",
    "Region": "Dar Es Salaam",
    "Postcode": "15118"
  },
  {
    "Location": "Nakasangwe",
    "Ward": "Wazo",
    "District": "Kinondoni",
    "Region": "Dar Es Salaam",
    "Postcode": "14130"
  },
  {
    "Location": "National Housing Corp",
    "Ward": "Mburahati",
    "District": "Ubungo",
    "Region": "Dar Es Salaam",
    "Postcode": "16101"
  },
  {
    "Location": "National Housing Corp.",
    "Ward": "Ubungo",
    "District": "Ubungo",
    "Region": "Dar Es Salaam",
    "Postcode": "16103"
  },
  {
    "Location": "Ndumbwi",
    "Ward": "Mbezi Juu",
    "District": "Kinondoni",
    "Region": "Dar Es Salaam",
    "Postcode": "14128"
  },
  {
    "Location": "Ngobanya",
    "Ward": "Kimbiji",
    "District": "Kigamboni",
    "Region": "Dar Es Salaam",
    "Postcode": "17101"
  },
  {
    "Location": "Ngobedi",
    "Ward": "Zingiziwa",
    "District": "Ilala",
    "Region": "Dar Es Salaam",
    "Postcode": "12125"
  },
  {
    "Location": "Ngoma Mapinduzi",
    "Ward": "Kisarawe Ii",
    "District": "Kigamboni",
    "Region": "Dar Es Salaam",
    "Postcode": "17104"
  },
  {
    "Location": "Nguvu Mpya",
    "Ward": "Chanika",
    "District": "Ilala",
    "Region": "Dar Es Salaam",
    "Postcode": "12115"
  },
  {
    "Location": "Ngwale",
    "Ward": "Chanika",
    "District": "Ilala",
    "Region": "Dar Es Salaam",
    "Postcode": "12115"
  },
  {
    "Location": "Njaro",
    "Ward": "Temeke",
    "District": "Temeke",
    "Region": "Dar Es Salaam",
    "Postcode": "15101"
  },
  {
    "Location": "Njeteni",
    "Ward": "Kwembe",
    "District": "Ubungo",
    "Region": "Dar Es Salaam",
    "Postcode": "16111"
  },
  {
    "Location": "Nyakwale",
    "Ward": "Kibada",
    "District": "Kigamboni",
    "Region": "Dar Es Salaam",
    "Postcode": "17109"
  },
  {
    "Location": "Nyambwera",
    "Ward": "Tandika",
    "District": "Temeke",
    "Region": "Dar Es Salaam",
    "Postcode": "15107"
  },
  {
    "Location": "Nyange",
    "Ward": "Pembamnazi",
    "District": "Kigamboni",
    "Region": "Dar Es Salaam",
    "Postcode": "17105"
  },
  {
    "Location": "Nyeburu",
    "Ward": "Buyuni",
    "District": "Ilala",
    "Region": "Dar Es Salaam",
    "Postcode": "12124"
  },
  {
    "Location": "Nzasa",
    "Ward": "Zingiziwa",
    "District": "Ilala",
    "Region": "Dar Es Salaam",
    "Postcode": "12125"
  },
  {
    "Location": "Nzasa",
    "Ward": "Kijitonyama",
    "District": "Kinondoni",
    "Region": "Dar Es Salaam",
    "Postcode": "14113"
  },
  {
    "Location": "Nzasa \"B\"",
    "Ward": "Charambe",
    "District": "Temeke",
    "Region": "Dar Es Salaam",
    "Postcode": "15117"
  },
  {
    "Location": "Nzasa A",
    "Ward": "Kilungule",
    "District": "Temeke",
    "Region": "Dar Es Salaam",
    "Postcode": "15132"
  },
  {
    "Location": "Oysterbay",
    "Ward": "Msasani",
    "District": "Kinondoni",
    "Region": "Dar Es Salaam",
    "Postcode": "14111"
  },
  {
    "Location": "Pakacha",
    "Ward": "Tandale",
    "District": "Kinondoni",
    "Region": "Dar Es Salaam",
    "Postcode": "14106"
  },
  {
    "Location": "Pemba Centre",
    "Ward": "Pembamnazi",
    "District": "Kigamboni",
    "Region": "Dar Es Salaam",
    "Postcode": "17105"
  },
  {
    "Location": "Ponde",
    "Ward": "Toangoma",
    "District": "Temeke",
    "Region": "Dar Es Salaam",
    "Postcode": "15118"
  },
  {
    "Location": "Potea",
    "Ward": "Pembamnazi",
    "District": "Kigamboni",
    "Region": "Dar Es Salaam",
    "Postcode": "17105"
  },
  {
    "Location": "Pu Centre",
    "Ward": "Pembamnazi",
    "District": "Kigamboni",
    "Region": "Dar Es Salaam",
    "Postcode": "17105"
  },
  {
    "Location": "Pugu station",
    "Ward": "Pugu Station",
    "District": "Ilala",
    "Region": "Dar Es Salaam",
    "Postcode": "12127"
  },
  {
    "Location": "Pwani",
    "Ward": "Kunduchi",
    "District": "Kinondoni",
    "Region": "Dar Es Salaam",
    "Postcode": "14122"
  },
  {
    "Location": "Rada",
    "Ward": "Majohe",
    "District": "Ilala",
    "Region": "Dar Es Salaam",
    "Postcode": "12113"
  },
  {
    "Location": "Rangi Tatu",
    "Ward": "Charambe",
    "District": "Temeke",
    "Region": "Dar Es Salaam",
    "Postcode": "15117"
  },
  {
    "Location": "Regent Estate",
    "Ward": "Mikocheni",
    "District": "Kinondoni",
    "Region": "Dar Es Salaam",
    "Postcode": "14112"
  },
  {
    "Location": "Relini",
    "Ward": "Kitunda",
    "District": "Ilala",
    "Region": "Dar Es Salaam",
    "Postcode": "12111"
  },
  {
    "Location": "Relini",
    "Ward": "Mtoni",
    "District": "Temeke",
    "Region": "Dar Es Salaam",
    "Postcode": "15108"
  },
  {
    "Location": "Rufu",
    "Ward": "Chamazi",
    "District": "Temeke",
    "Region": "Dar Es Salaam",
    "Postcode": "15116"
  },
  {
    "Location": "Sabasaba",
    "Ward": "Mtoni",
    "District": "Temeke",
    "Region": "Dar Es Salaam",
    "Postcode": "15108"
  },
  {
    "Location": "Sabasaba",
    "Ward": "Ukonga",
    "District": "Ilala",
    "Region": "Dar Es Salaam",
    "Postcode": "12107"
  },
  {
    "Location": "Salasala",
    "Ward": "Wazo",
    "District": "Kinondoni",
    "Region": "Dar Es Salaam",
    "Postcode": "14130"
  },
  {
    "Location": "Sandali",
    "Ward": "Sandali",
    "District": "Temeke",
    "Region": "Dar Es Salaam",
    "Postcode": "15102"
  },
  {
    "Location": "Sangara",
    "Ward": "Msongola",
    "District": "Ilala",
    "Region": "Dar Es Salaam",
    "Postcode": "12114"
  },
  {
    "Location": "Sara",
    "Ward": "Somangila",
    "District": "Kigamboni",
    "Region": "Dar Es Salaam",
    "Postcode": "17102"
  },
  {
    "Location": "Saranga",
    "Ward": "Saranga",
    "District": "Ubungo",
    "Region": "Dar Es Salaam",
    "Postcode": "16105"
  },
  {
    "Location": "Sea View",
    "Ward": "Kivukoni",
    "District": "Ilala CBD",
    "Region": "Dar Es Salaam",
    "Postcode": "11101"
  },
  {
    "Location": "Segerea",
    "Ward": "Segerea",
    "District": "Ilala",
    "Region": "Dar Es Salaam",
    "Postcode": "12105"
  },
  {
    "Location": "Serenge",
    "Ward": "Mbagala",
    "District": "Temeke",
    "Region": "Dar Es Salaam",
    "Postcode": "15113"
  },
  {
    "Location": "Shariff Shamba",
    "Ward": "Ilala",
    "District": "Ilala",
    "Region": "Dar Es Salaam",
    "Postcode": "12101"
  },
  {
    "Location": "Sharifu",
    "Ward": "Kisarawe Ii",
    "District": "Kigamboni",
    "Region": "Dar Es Salaam",
    "Postcode": "17104"
  },
  {
    "Location": "Shimo la Udongo",
    "Ward": "Kurasini",
    "District": "Temeke",
    "Region": "Dar Es Salaam",
    "Postcode": "15109"
  },
  {
    "Location": "Shirikisho",
    "Ward": "Somangila",
    "District": "Kigamboni",
    "Region": "Dar Es Salaam",
    "Postcode": "17102"
  },
  {
    "Location": "Sigara",
    "Ward": "Yombo Vituka",
    "District": "Temeke",
    "Region": "Dar Es Salaam",
    "Postcode": "15115"
  },
  {
    "Location": "Singano",
    "Ward": "Makumbusho",
    "District": "Kinondoni",
    "Region": "Dar Es Salaam",
    "Postcode": "14107"
  },
  {
    "Location": "Sinza \"A\"",
    "Ward": "Sinza",
    "District": "Ubungo",
    "Region": "Dar Es Salaam",
    "Postcode": "16102"
  },
  {
    "Location": "Sinza \"B\"",
    "Ward": "Sinza",
    "District": "Ubungo",
    "Region": "Dar Es Salaam",
    "Postcode": "16102"
  },
  {
    "Location": "Sinza \"C\"",
    "Ward": "Sinza",
    "District": "Ubungo",
    "Region": "Dar Es Salaam",
    "Postcode": "16102"
  },
  {
    "Location": "Sinza \"D\"",
    "Ward": "Sinza",
    "District": "Ubungo",
    "Region": "Dar Es Salaam",
    "Postcode": "16102"
  },
  {
    "Location": "Sinza \"E\"",
    "Ward": "Sinza",
    "District": "Ubungo",
    "Region": "Dar Es Salaam",
    "Postcode": "16102"
  },
  {
    "Location": "Sisi kwa Sisi",
    "Ward": "Makurumla",
    "District": "Ubungo",
    "Region": "Dar Es Salaam",
    "Postcode": "16107"
  },
  {
    "Location": "Sokoine",
    "Ward": "Kimanga",
    "District": "Ilala",
    "Region": "Dar Es Salaam",
    "Postcode": "12104"
  },
  {
    "Location": "Sokoni",
    "Ward": "Kibada",
    "District": "Kigamboni",
    "Region": "Dar Es Salaam",
    "Postcode": "17109"
  },
  {
    "Location": "Sokoni",
    "Ward": "Tandale",
    "District": "Kinondoni",
    "Region": "Dar Es Salaam",
    "Postcode": "14106"
  },
  {
    "Location": "Somelo",
    "Ward": "Zingiziwa",
    "District": "Ilala",
    "Region": "Dar Es Salaam",
    "Postcode": "12125"
  },
  {
    "Location": "Songani Centre",
    "Ward": "Pembamnazi",
    "District": "Kigamboni",
    "Region": "Dar Es Salaam",
    "Postcode": "17105"
  },
  {
    "Location": "Stakishari",
    "Ward": "Kipawa",
    "District": "Ilala",
    "Region": "Dar Es Salaam",
    "Postcode": "12106"
  },
  {
    "Location": "Stop Over",
    "Ward": "Saranga",
    "District": "Ubungo",
    "Region": "Dar Es Salaam",
    "Postcode": "16105"
  },
  {
    "Location": "Suna",
    "Ward": "Magomeni",
    "District": "Kinondoni",
    "Region": "Dar Es Salaam",
    "Postcode": "14101"
  },
  {
    "Location": "Tabata",
    "Ward": "Tabata",
    "District": "Ilala",
    "Region": "Dar Es Salaam",
    "Postcode": "12103"
  },
  {
    "Location": "Taliani",
    "Ward": "Buyuni",
    "District": "Ilala",
    "Region": "Dar Es Salaam",
    "Postcode": "12124"
  },
  {
    "Location": "Tambukareli",
    "Ward": "Azimio",
    "District": "Temeke",
    "Region": "Dar Es Salaam",
    "Postcode": "15106"
  },
  {
    "Location": "Tamla",
    "Ward": "Tandika",
    "District": "Temeke",
    "Region": "Dar Es Salaam",
    "Postcode": "15107"
  },
  {
    "Location": "Tandika",
    "Ward": "Tandika",
    "District": "Temeke",
    "Region": "Dar Es Salaam",
    "Postcode": "15107"
  },
  {
    "Location": "Tegeta",
    "Ward": "Kunduchi",
    "District": "Kinondoni",
    "Region": "Dar Es Salaam",
    "Postcode": "14122"
  },
  {
    "Location": "Tegeta A",
    "Ward": "Goba",
    "District": "Ubungo",
    "Region": "Dar Es Salaam",
    "Postcode": "16112"
  },
  {
    "Location": "Tembomgwaza",
    "Ward": "Kimanga",
    "District": "Ilala",
    "Region": "Dar Es Salaam",
    "Postcode": "12104"
  },
  {
    "Location": "Temboni",
    "Ward": "Msigani",
    "District": "Ubungo",
    "Region": "Dar Es Salaam",
    "Postcode": "16114"
  },
  {
    "Location": "Temeke",
    "Ward": "Temeke",
    "District": "Temeke",
    "Region": "Dar Es Salaam",
    "Postcode": "15101"
  },
  {
    "Location": "Tenge",
    "Ward": "Tabata",
    "District": "Ilala",
    "Region": "Dar Es Salaam",
    "Postcode": "12103"
  },
  {
    "Location": "Teta",
    "Ward": "Mbweni",
    "District": "Kinondoni",
    "Region": "Dar Es Salaam",
    "Postcode": "14126"
  },
  {
    "Location": "Tindwa",
    "Ward": "Sandali",
    "District": "Temeke",
    "Region": "Dar Es Salaam",
    "Postcode": "15102"
  },
  {
    "Location": "Toangoma",
    "Ward": "Toangoma",
    "District": "Temeke",
    "Region": "Dar Es Salaam",
    "Postcode": "15118"
  },
  {
    "Location": "Toroli",
    "Ward": "Chang’Ombe",
    "District": "Temeke",
    "Region": "Dar Es Salaam",
    "Postcode": "15103"
  },
  {
    "Location": "TPDC",
    "Ward": "Mikocheni",
    "District": "Kinondoni",
    "Region": "Dar Es Salaam",
    "Postcode": "14112"
  },
  {
    "Location": "Tuamoyo",
    "Ward": "Kigamboni",
    "District": "Kigamboni",
    "Region": "Dar Es Salaam",
    "Postcode": "17107"
  },
  {
    "Location": "Tumaini",
    "Ward": "Kisarawe Ii",
    "District": "Kigamboni",
    "Region": "Dar Es Salaam",
    "Postcode": "17104"
  },
  {
    "Location": "Tundwi Centre",
    "Ward": "Pembamnazi",
    "District": "Kigamboni",
    "Region": "Dar Es Salaam",
    "Postcode": "17105"
  },
  {
    "Location": "Tungi",
    "Ward": "Tungi",
    "District": "Kigamboni",
    "Region": "Dar Es Salaam",
    "Postcode": "17103"
  },
  {
    "Location": "Tungini",
    "Ward": "Chanika",
    "District": "Ilala",
    "Region": "Dar Es Salaam",
    "Postcode": "12115"
  },
  {
    "Location": "Tupendane",
    "Ward": "Manzese",
    "District": "Ubungo",
    "Region": "Dar Es Salaam",
    "Postcode": "16108"
  },
  {
    "Location": "Twiga",
    "Ward": "Kimanga",
    "District": "Ilala",
    "Region": "Dar Es Salaam",
    "Postcode": "12104"
  },
  {
    "Location": "Ugombolwa",
    "Ward": "Segerea",
    "District": "Ilala",
    "Region": "Dar Es Salaam",
    "Postcode": "12105"
  },
  {
    "Location": "Ukombozi",
    "Ward": "Jangwani",
    "District": "Ilala CBD",
    "Region": "Dar Es Salaam",
    "Postcode": "11108"
  },
  {
    "Location": "Ukombozi",
    "Ward": "Saranga",
    "District": "Ubungo",
    "Region": "Dar Es Salaam",
    "Postcode": "16105"
  },
  {
    "Location": "Ukwamani",
    "Ward": "Kawe",
    "District": "Kinondoni",
    "Region": "Dar Es Salaam",
    "Postcode": "14121"
  },
  {
    "Location": "Ulongoni A",
    "Ward": "Gongo La Mboto",
    "District": "Ilala",
    "Region": "Dar Es Salaam",
    "Postcode": "12110"
  },
  {
    "Location": "Ulongoni B",
    "Ward": "Gongo La Mboto",
    "District": "Ilala",
    "Region": "Dar Es Salaam",
    "Postcode": "12110"
  },
  {
    "Location": "Ungindoni",
    "Ward": "Mjimwema",
    "District": "Kigamboni",
    "Region": "Dar Es Salaam",
    "Postcode": "17106"
  },
  {
    "Location": "Ununio",
    "Ward": "Kunduchi",
    "District": "Kinondoni",
    "Region": "Dar Es Salaam",
    "Postcode": "14122"
  },
  {
    "Location": "Upendo",
    "Ward": "Vijibweni",
    "District": "Kigamboni",
    "Region": "Dar Es Salaam",
    "Postcode": "17108"
  },
  {
    "Location": "Upendo",
    "Ward": "Saranga",
    "District": "Ubungo",
    "Region": "Dar Es Salaam",
    "Postcode": "16105"
  },
  {
    "Location": "Usalama",
    "Ward": "Sandali",
    "District": "Temeke",
    "Region": "Dar Es Salaam",
    "Postcode": "15102"
  },
  {
    "Location": "Uvumba",
    "Ward": "Kibada",
    "District": "Kigamboni",
    "Region": "Dar Es Salaam",
    "Postcode": "17109"
  },
  {
    "Location": "Uwanja wa Ndege",
    "Ward": "Kipawa",
    "District": "Ilala",
    "Region": "Dar Es Salaam",
    "Postcode": "12106"
  },
  {
    "Location": "Uwanja wa Nyani",
    "Ward": "Msongola",
    "District": "Ilala",
    "Region": "Dar Es Salaam",
    "Postcode": "12114"
  },
  {
    "Location": "Uwanja wa Taifa",
    "Ward": "Miburani",
    "District": "Temeke",
    "Region": "Dar Es Salaam",
    "Postcode": "15105"
  },
  {
    "Location": "Uwazi",
    "Ward": "Makangarawe",
    "District": "Temeke",
    "Region": "Dar Es Salaam",
    "Postcode": "15114"
  },
  {
    "Location": "Uzombokoni",
    "Ward": "Kilungule",
    "District": "Temeke",
    "Region": "Dar Es Salaam",
    "Postcode": "15132"
  },
  {
    "Location": "Uzuri",
    "Ward": "Manzese",
    "District": "Ubungo",
    "Region": "Dar Es Salaam",
    "Postcode": "16108"
  },
  {
    "Location": "Veterinary",
    "Ward": "Sandali",
    "District": "Temeke",
    "Region": "Dar Es Salaam",
    "Postcode": "15102"
  },
  {
    "Location": "Vigaeni",
    "Ward": "Ndugumbi",
    "District": "Kinondoni",
    "Region": "Dar Es Salaam",
    "Postcode": "14104"
  },
  {
    "Location": "Vigoa",
    "Ward": "Chamazi",
    "District": "Temeke",
    "Region": "Dar Es Salaam",
    "Postcode": "15116"
  },
  {
    "Location": "Vijibweni",
    "Ward": "Vijibweni",
    "District": "Kigamboni",
    "Region": "Dar Es Salaam",
    "Postcode": "17108"
  },
  {
    "Location": "Vikongoro",
    "Ward": "Chanika",
    "District": "Ilala",
    "Region": "Dar Es Salaam",
    "Postcode": "12115"
  },
  {
    "Location": "Vikunai",
    "Ward": "Toangoma",
    "District": "Temeke",
    "Region": "Dar Es Salaam",
    "Postcode": "15118"
  },
  {
    "Location": "Virobo",
    "Ward": "Chanika",
    "District": "Ilala",
    "Region": "Dar Es Salaam",
    "Postcode": "12115"
  },
  {
    "Location": "Visikini",
    "Ward": "Somangila",
    "District": "Kigamboni",
    "Region": "Dar Es Salaam",
    "Postcode": "17102"
  },
  {
    "Location": "Viwege",
    "Ward": "Majohe",
    "District": "Ilala",
    "Region": "Dar Es Salaam",
    "Postcode": "12113"
  },
  {
    "Location": "Vumilia Ukooni",
    "Ward": "Kisarawe Ii",
    "District": "Kigamboni",
    "Region": "Dar Es Salaam",
    "Postcode": "17104"
  },
  {
    "Location": "Wailes",
    "Ward": "Miburani",
    "District": "Temeke",
    "Region": "Dar Es Salaam",
    "Postcode": "15105"
  },
  {
    "Location": "Wazo",
    "Ward": "Wazo",
    "District": "Kinondoni",
    "Region": "Dar Es Salaam",
    "Postcode": "14130"
  },
  {
    "Location": "Yangeyange",
    "Ward": "Msongola",
    "District": "Ilala",
    "Region": "Dar Es Salaam",
    "Postcode": "12114"
  },
  {
    "Location": "Yombo",
    "Ward": "Kiwalani",
    "District": "Ilala",
    "Region": "Dar Es Salaam",
    "Postcode": "12108"
  },
  {
    "Location": "Yombo Dovya",
    "Ward": "Makangarawe",
    "District": "Temeke",
    "Region": "Dar Es Salaam",
    "Postcode": "15114"
  },
  {
    "Location": "Yombo reli",
    "Ward": "Kilakala",
    "District": "Temeke",
    "Region": "Dar Es Salaam",
    "Postcode": "15127"
  },
  {
    "Location": "Yombo Vituka",
    "Ward": "Yombo Vituka",
    "District": "Temeke",
    "Region": "Dar Es Salaam",
    "Postcode": "15115"
  },
  {
    "Location": "Yongwe",
    "Ward": "Chanika",
    "District": "Ilala",
    "Region": "Dar Es Salaam",
    "Postcode": "12115"
  },
  {
    "Location": "Zavala",
    "Ward": "Buyuni",
    "District": "Ilala",
    "Region": "Dar Es Salaam",
    "Postcode": "12124"
  },
  {
    "Location": "Zingiziwa",
    "Ward": "Zingiziwa",
    "District": "Ilala",
    "Region": "Dar Es Salaam",
    "Postcode": "12125"
  },
  {
    "Location": "Zogoali",
    "Ward": "Zingiziwa",
    "District": "Ilala",
    "Region": "Dar Es Salaam",
    "Postcode": "12125"
  }
]